{"type": "FeatureCollection", "features": [{"type": "Feature", "properties": {"index": "CANB", "division": "Canberra", "state": "Australian Capital Territory", "year": "1992", "proclaimed": "19920323", "quota": "0", "electors": "0", "deviation": ""}, "geometry": {"type": "Polygon", "coordinates": [[[148.810041, -35.307412], [148.807854, -35.309647], [148.803558, -35.316661], [148.802693, -35.319806], [148.800865, -35.321723], [148.802106, -35.32553], [148.801531, -35.329267], [148.7983, -35.332139], [148.793247, -35.339156], [148.795233, -35.342113], [148.796555, -35.346339], [148.79859, -35.348352], [148.799107, -35.350616], [148.798949, -35.354573], [148.796395, -35.358616], [148.799451, -35.359224], [148.801361, -35.362815], [148.805565, -35.365361], [148.804092, -35.369589], [148.804108, -35.376121], [148.805344, -35.378841], [148.808675, -35.380591], [148.808702, -35.382373], [148.804826, -35.385028], [148.804803, -35.386924], [148.803648, -35.388739], [148.799445, -35.390158], [148.795719, -35.39292], [148.796119, -35.406549], [148.785764, -35.408748], [148.786252, -35.412673], [148.787316, -35.414083], [148.790073, -35.415468], [148.788884, -35.417792], [148.788853, -35.421898], [148.787563, -35.422978], [148.788868, -35.426382], [148.786195, -35.428827], [148.784206, -35.432188], [148.780917, -35.433227], [148.777524, -35.439998], [148.774822, -35.44174], [148.774627, -35.446091], [148.773002, -35.449316], [148.77594, -35.454683], [148.7731, -35.459802], [148.772881, -35.462355], [148.767058, -35.465405], [148.766886, -35.471056], [148.77063, -35.475563], [148.770827, -35.47998], [148.774462, -35.484882], [148.774354, -35.486003], [148.765183, -35.490825], [148.762675, -35.495505], [148.764733, -35.499149], [148.764681, -35.502678], [148.765516, -35.504936], [148.768094, -35.50675], [148.768588, -35.507999], [148.766335, -35.510447], [148.767476, -35.51302], [148.768105, -35.524448], [148.772364, -35.529329], [148.769973, -35.536284], [148.769231, -35.544096], [148.771191, -35.54757], [148.77312, -35.549033], [148.775034, -35.554317], [148.778231, -35.558852], [148.778514, -35.563669], [148.773039, -35.568157], [148.782121, -35.579122], [148.782467, -35.581287], [148.786003, -35.582351], [148.788758, -35.588179], [148.787316, -35.59064], [148.783868, -35.593334], [148.783191, -35.595258], [148.77436, -35.597897], [148.772116, -35.601336], [148.768473, -35.603186], [148.772447, -35.60912], [148.778157, -35.613338], [148.780439, -35.617586], [148.78065, -35.620301], [148.779614, -35.623724], [148.780758, -35.625994], [148.782361, -35.626208], [148.783462, -35.628342], [148.78043, -35.63286], [148.770818, -35.639938], [148.771813, -35.641723], [148.771365, -35.645738], [148.769073, -35.645837], [148.767495, -35.647323], [148.769883, -35.649652], [148.772799, -35.649918], [148.772183, -35.65358], [148.773636, -35.655457], [148.783304, -35.656231], [148.786422, -35.6578], [148.786951, -35.660462], [148.790554, -35.659235], [148.798434, -35.666492], [148.797166, -35.67156], [148.798377, -35.676384], [148.797556, -35.680341], [148.793225, -35.686726], [148.792542, -35.689107], [148.791407, -35.689557], [148.791367, -35.69324], [148.788417, -35.69774], [148.791182, -35.703449], [148.796127, -35.707909], [148.796565, -35.709449], [148.804045, -35.713967], [148.805302, -35.713996], [148.808604, -35.717269], [148.811494, -35.718227], [148.812719, -35.719786], [148.818749, -35.718718], [148.822495, -35.720971], [148.823575, -35.724213], [148.827871, -35.726148], [148.829033, -35.727701], [148.830182, -35.732159], [148.832873, -35.735021], [148.835715, -35.741884], [148.840738, -35.746444], [148.847093, -35.750469], [148.854026, -35.751082], [148.856132, -35.753518], [148.854938, -35.759197], [148.855652, -35.760874], [148.857501, -35.761397], [148.859648, -35.760626], [148.862456, -35.75755], [148.860737, -35.752874], [148.861439, -35.7501], [148.863899, -35.748104], [148.864863, -35.742375], [148.866738, -35.740665], [148.867477, -35.738702], [148.86407, -35.733869], [148.865765, -35.731624], [148.867246, -35.731907], [148.868591, -35.731092], [148.871608, -35.725564], [148.872491, -35.721422], [148.877693, -35.714936], [148.883614, -35.717122], [148.886633, -35.719136], [148.892315, -35.728359], [148.892479, -35.730487], [148.888368, -35.733671], [148.888087, -35.737026], [148.890855, -35.740469], [148.894087, -35.751288], [148.898777, -35.751215], [148.903348, -35.757798], [148.901774, -35.761702], [148.902312, -35.763202], [148.899418, -35.767601], [148.895221, -35.770611], [148.894887, -35.771654], [148.895284, -35.775342], [148.894688, -35.777668], [148.895501, -35.779265], [148.894809, -35.780469], [148.895432, -35.781791], [148.894956, -35.784627], [148.897776, -35.79465], [148.893118, -35.799293], [148.892963, -35.801516], [148.890784, -35.803548], [148.889159, -35.807635], [148.886623, -35.810063], [148.89104, -35.813846], [148.892426, -35.816626], [148.896577, -35.817924], [148.897596, -35.82472], [148.899603, -35.825879], [148.903561, -35.826134], [148.906203, -35.828013], [148.907065, -35.829563], [148.906596, -35.832084], [148.903802, -35.833356], [148.90314, -35.835173], [148.905268, -35.839639], [148.903936, -35.842505], [148.907842, -35.847863], [148.907788, -35.850765], [148.909367, -35.853065], [148.91054, -35.853235], [148.912654, -35.85546], [148.916306, -35.855809], [148.920059, -35.85729], [148.9205, -35.858807], [148.919456, -35.859817], [148.919783, -35.86079], [148.924983, -35.863808], [148.927702, -35.867055], [148.930301, -35.868172], [148.932237, -35.870567], [148.932719, -35.87365], [148.940614, -35.875839], [148.944562, -35.881391], [148.95277, -35.888208], [148.958406, -35.891788], [148.959591, -35.894349], [148.959133, -35.895456], [148.961624, -35.8968], [148.966288, -35.897268], [148.967855, -35.893972], [148.975656, -35.892176], [148.98376, -35.893993], [148.986733, -35.895463], [148.990432, -35.895967], [148.993326, -35.895225], [148.996888, -35.896205], [148.997983, -35.896887], [148.997398, -35.900995], [148.999379, -35.902625], [149.003487, -35.901203], [149.00882, -35.901306], [149.012198, -35.899697], [149.022681, -35.906086], [149.024913, -35.910475], [149.027606, -35.912892], [149.031159, -35.911324], [149.0337, -35.911196], [149.036133, -35.913922], [149.039718, -35.914062], [149.043763, -35.916535], [149.044564, -35.919537], [149.04608, -35.920762], [149.048811, -35.92041], [149.055067, -35.913675], [149.055848, -35.909513], [149.057133, -35.907397], [149.051698, -35.903534], [149.051752, -35.902296], [149.054224, -35.898895], [149.058908, -35.896001], [149.058578, -35.894666], [149.060814, -35.893283], [149.061738, -35.891448], [149.06014, -35.888293], [149.062377, -35.884516], [149.061518, -35.880073], [149.064408, -35.874932], [149.067644, -35.870859], [149.074272, -35.865846], [149.076789, -35.860646], [149.079685, -35.859055], [149.082121, -35.853208], [149.084522, -35.852289], [149.084228, -35.850227], [149.086574, -35.848248], [149.088894, -35.848199], [149.093266, -35.846476], [149.094851, -35.846825], [149.095682, -35.845716], [149.095836, -35.843327], [149.094588, -35.841549], [149.095376, -35.839146], [149.09298, -35.838266], [149.091978, -35.835416], [149.093658, -35.833978], [149.094519, -35.830841], [149.094725, -35.828766], [149.093371, -35.825729], [149.093517, -35.824221], [149.094987, -35.822039], [149.094504, -35.821215], [149.096028, -35.81976], [149.095931, -35.817612], [149.098789, -35.81688], [149.100453, -35.815367], [149.099624, -35.811909], [149.100457, -35.810044], [149.098237, -35.807904], [149.099611, -35.807246], [149.101481, -35.803698], [149.099805, -35.80328], [149.099775, -35.801716], [149.097099, -35.799674], [149.096732, -35.798272], [149.097661, -35.796017], [149.100201, -35.7941], [149.100232, -35.789757], [149.096232, -35.787227], [149.093498, -35.787226], [149.093033, -35.785829], [149.093144, -35.783159], [149.097391, -35.777414], [149.09165, -35.773939], [149.093325, -35.770851], [149.090716, -35.7656], [149.093244, -35.762881], [149.092948, -35.759112], [149.094648, -35.756591], [149.094909, -35.754275], [149.096438, -35.75278], [149.095089, -35.750316], [149.096974, -35.747448], [149.095618, -35.746037], [149.096198, -35.743805], [149.100699, -35.736392], [149.100592, -35.733488], [149.099056, -35.729323], [149.104121, -35.725193], [149.103918, -35.723379], [149.099371, -35.716218], [149.099514, -35.714819], [149.101101, -35.713112], [149.102222, -35.707481], [149.107524, -35.702358], [149.109483, -35.69664], [149.106001, -35.69119], [149.103793, -35.690759], [149.104879, -35.687286], [149.104439, -35.684867], [149.09953, -35.683842], [149.095379, -35.679285], [149.095037, -35.676784], [149.09729, -35.67359], [149.095737, -35.668057], [149.096724, -35.663182], [149.095914, -35.661515], [149.098572, -35.657231], [149.095415, -35.653043], [149.096831, -35.651769], [149.097495, -35.647313], [149.096145, -35.645618], [149.095717, -35.640344], [149.092505, -35.639662], [149.089091, -35.641032], [149.087612, -35.639697], [149.087524, -35.636656], [149.086569, -35.635838], [149.088591, -35.634094], [149.087318, -35.630392], [149.087916, -35.627857], [149.08419, -35.621677], [149.085208, -35.619576], [149.084525, -35.614644], [149.082571, -35.613639], [149.079234, -35.607749], [149.080057, -35.604985], [149.07818, -35.598819], [149.079366, -35.597443], [149.078233, -35.59534], [149.079121, -35.593044], [149.078148, -35.586417], [149.082923, -35.584593], [149.084614, -35.580814], [149.108345, -35.58398], [149.108083, -35.586411], [149.11009, -35.587858], [149.111766, -35.587559], [149.113145, -35.585804], [149.12552, -35.587203], [149.125101, -35.589303], [149.126396, -35.58949], [149.126, -35.591626], [149.129998, -35.592151], [149.130268, -35.590785], [149.14251, -35.59257], [149.140486, -35.588292], [149.135177, -35.570353], [149.131376, -35.554173], [149.132384, -35.549458], [149.15094, -35.508371], [149.151533, -35.492235], [149.144289, -35.47507], [149.138768, -35.468009], [149.138193, -35.463403], [149.136495, -35.46046], [149.136474, -35.456997], [149.13555, -35.454422], [149.13713, -35.452019], [149.142171, -35.451395], [149.143053, -35.450641], [149.143348, -35.447823], [149.14503, -35.446125], [149.148082, -35.444266], [149.152841, -35.443349], [149.1532, -35.43971], [149.155123, -35.435781], [149.154189, -35.434207], [149.152273, -35.433434], [149.145341, -35.433233], [149.142744, -35.434285], [149.140726, -35.434126], [149.139208, -35.432879], [149.138163, -35.429401], [149.144486, -35.423693], [149.14565, -35.416777], [149.146867, -35.414485], [149.156976, -35.407657], [149.183334, -35.379585], [149.190824, -35.368854], [149.206091, -35.34607], [149.218974, -35.341309], [149.230568, -35.342735], [149.242954, -35.335778], [149.246547, -35.331355], [149.249308, -35.330127], [149.254744, -35.330121], [149.258576, -35.331968], [149.262255, -35.331259], [149.268373, -35.335067], [149.276044, -35.335785], [149.281563, -35.338002], [149.284532, -35.33774], [149.292921, -35.333542], [149.300028, -35.33308], [149.302133, -35.333484], [149.305073, -35.335942], [149.31402, -35.33604], [149.316901, -35.336536], [149.316945, -35.336411], [149.316011, -35.335764], [149.309546, -35.335513], [149.304122, -35.334256], [149.303116, -35.333537], [149.30308, -35.332424], [149.303799, -35.332064], [149.307211, -35.332064], [149.307965, -35.331418], [149.305702, -35.327323], [149.306493, -35.325132], [149.30423, -35.322366], [149.30229, -35.322438], [149.301608, -35.321648], [149.301177, -35.320283], [149.297585, -35.32075], [149.297153, -35.321684], [149.293813, -35.321432], [149.293059, -35.323228], [149.291622, -35.325204], [149.289107, -35.32488], [149.286377, -35.322617], [149.285084, -35.32312], [149.284294, -35.326748], [149.285479, -35.329263], [149.282498, -35.330664], [149.28063, -35.336375], [149.280307, -35.333609], [149.276895, -35.332891], [149.274524, -35.334794], [149.269351, -35.333824], [149.263496, -35.331023], [149.25897, -35.331148], [149.254912, -35.329227], [149.251284, -35.329658], [149.248769, -35.327718], [149.247584, -35.325707], [149.244387, -35.324018], [149.24216, -35.325311], [149.242088, -35.327215], [149.244136, -35.327754], [149.245932, -35.32858], [149.246291, -35.331023], [149.244441, -35.333367], [149.241415, -35.335926], [149.238101, -35.33756], [149.235622, -35.337488], [149.231348, -35.33598], [149.230773, -35.337237], [149.22754, -35.338063], [149.225098, -35.33871], [149.22323, -35.338063], [149.223015, -35.335261], [149.222188, -35.332998], [149.220141, -35.332352], [149.217878, -35.3321], [149.21504, -35.333824], [149.206168, -35.33695], [149.203366, -35.337524], [149.201786, -35.338746], [149.200529, -35.341152], [149.19902, -35.341655], [149.195895, -35.341152], [149.191261, -35.34011], [149.190507, -35.338566], [149.190615, -35.336195], [149.19101, -35.334291], [149.192878, -35.330735], [149.192662, -35.329442], [149.188028, -35.320857], [149.18573, -35.319528], [149.182281, -35.318936], [149.178941, -35.317876], [149.177773, -35.317625], [149.177755, -35.316906], [149.177073, -35.316134], [149.177468, -35.314428], [149.178635, -35.313619], [149.178258, -35.312524], [149.177073, -35.310908], [149.175187, -35.309686], [149.175546, -35.308321], [149.17578, -35.307136], [149.175654, -35.306346], [149.176121, -35.305609], [149.176354, -35.304891], [149.175618, -35.3034], [149.17393, -35.30243], [149.171972, -35.302233], [149.169691, -35.304316], [149.168326, -35.305412], [149.165291, -35.305609], [149.163854, -35.305124], [149.162004, -35.304837], [149.160586, -35.304119], [149.158897, -35.302502], [149.157784, -35.302341], [149.156006, -35.302897], [149.154659, -35.303526], [149.152881, -35.304442], [149.152369, -35.30496], [149.153152, -35.305063], [149.149027, -35.310285], [149.148942, -35.310228], [149.149109, -35.310961], [149.150743, -35.312452], [149.152719, -35.31256], [149.153653, -35.312991], [149.154389, -35.312973], [149.154066, -35.315882], [149.154425, -35.31599], [149.153994, -35.318343], [149.151192, -35.322582], [149.150672, -35.32312], [149.151875, -35.324342], [149.161915, -35.330574], [149.161609, -35.330915], [149.16213, -35.335926], [149.161448, -35.33853], [149.159903, -35.340128], [149.157532, -35.341691], [149.15421, -35.343074], [149.146936, -35.345391], [149.143182, -35.345606], [149.140524, -35.344816], [149.138315, -35.344259], [149.135172, -35.344295], [149.132873, -35.344618], [149.130072, -35.345409], [149.127791, -35.346989], [149.12551, -35.34769], [149.124163, -35.348067], [149.116117, -35.336734], [149.116799, -35.328436], [149.114608, -35.325401], [149.114518, -35.324755], [149.113943, -35.32427], [149.112974, -35.324431], [149.111375, -35.324449], [149.110028, -35.324144], [149.109579, -35.323731], [149.109525, -35.322869], [149.110477, -35.322097], [149.110782, -35.321881], [149.111052, -35.320947], [149.111968, -35.320839], [149.113405, -35.320678], [149.115326, -35.318666], [149.115704, -35.319043], [149.115524, -35.319205], [149.115955, -35.32048], [149.119673, -35.32312], [149.121666, -35.322599], [149.123013, -35.322168], [149.124091, -35.322815], [149.12551, -35.322815], [149.126893, -35.322474], [149.127809, -35.321881], [149.128437, -35.321145], [149.128707, -35.320606], [149.133089, -35.319169], [149.132721, -35.318774], [149.132595, -35.318109], [149.132721, -35.31749], [149.13325, -35.316933], [149.133586, -35.316812], [149.133897, -35.3167], [149.134535, -35.316475], [149.13537, -35.316071], [149.133927, -35.315196], [149.133681, -35.315047], [149.133161, -35.314356], [149.133224, -35.313898], [149.133421, -35.313539], [149.1285, -35.310782], [149.128078, -35.311132], [149.127557, -35.311563], [149.126686, -35.311976], [149.125995, -35.312183], [149.125016, -35.312353], [149.124441, -35.312407], [149.123597, -35.312344], [149.122654, -35.312066], [149.121783, -35.311779], [149.121262, -35.311509], [149.120678, -35.311105], [149.120247, -35.310683], [149.119969, -35.310243], [149.119762, -35.30992], [149.119511, -35.309273], [149.107684, -35.312149], [149.103134, -35.313128], [149.098291, -35.313799], [149.096235, -35.314509], [149.094457, -35.315101], [149.09381, -35.315236], [149.092831, -35.315523], [149.091242, -35.315245], [149.092005, -35.313], [149.089033, -35.312407], [149.087381, -35.312434], [149.085594, -35.312488], [149.083869, -35.312721], [149.082918, -35.312928], [149.077898, -35.30974], [149.073623, -35.305205], [149.072815, -35.30419], [149.072761, -35.303176], [149.073255, -35.302098], [149.073587, -35.301667], [149.073929, -35.300805], [149.072743, -35.299961], [149.071163, -35.299225], [149.070956, -35.299745], [149.070669, -35.300365], [149.070929, -35.300868], [149.070202, -35.301999], [149.069932, -35.302987], [149.070399, -35.304657], [149.070184, -35.306795], [149.069879, -35.307765], [149.068801, -35.308968], [149.067274, -35.310539], [149.064113, -35.312219], [149.062623, -35.313314], [149.061312, -35.313664], [149.058878, -35.314805], [149.0564, -35.316852], [149.052448, -35.318469], [149.048829, -35.318837], [149.047312, -35.318083], [149.046836, -35.317319], [149.046656, -35.315362], [149.046531, -35.314284], [149.047518, -35.313539], [149.047842, -35.312713], [149.048569, -35.311446], [149.048066, -35.309866], [149.047258, -35.308914], [149.045965, -35.3086], [149.043648, -35.308501], [149.040828, -35.309623], [149.039688, -35.309704], [149.038089, -35.308959], [149.038377, -35.307217], [149.039113, -35.306444], [149.051649, -35.30208], [149.053319, -35.301146], [149.052996, -35.300679], [149.04944, -35.299081], [149.045992, -35.295848], [149.042795, -35.293082], [149.041825, -35.291286], [149.040963, -35.287227], [149.038916, -35.28579], [149.035395, -35.285683], [149.033815, -35.286221], [149.033923, -35.289239], [149.033025, -35.289957], [149.031516, -35.289957], [149.028966, -35.287263], [149.028499, -35.285647], [149.028571, -35.279792], [149.026344, -35.278858], [149.024871, -35.27875], [149.022033, -35.2799], [149.019626, -35.279504], [149.019088, -35.277349], [149.0188, -35.272967], [149.01783, -35.271925], [149.016286, -35.271782], [149.009246, -35.272033], [149.007019, -35.271135], [149.005546, -35.269088], [149.004756, -35.267004], [149.004109, -35.2637], [149.002636, -35.261473], [149.000517, -35.259964], [148.997931, -35.258743], [148.996925, -35.258455], [148.996278, -35.259317], [148.995632, -35.262047], [148.99398, -35.262478], [148.98676, -35.26176], [148.982413, -35.26], [148.981336, -35.259174], [148.978498, -35.258779], [148.977313, -35.256731], [148.976055, -35.25533], [148.973972, -35.255258], [148.972607, -35.25436], [148.970919, -35.251523], [148.968081, -35.248613], [148.965459, -35.248039], [148.962478, -35.246745], [148.961975, -35.244949], [148.962298, -35.24362], [148.965423, -35.242471], [148.967255, -35.241286], [148.971386, -35.241142], [148.974547, -35.239885], [148.975804, -35.23852], [148.974834, -35.236329], [148.971278, -35.233671], [148.968405, -35.231731], [148.967507, -35.228714], [148.967075, -35.227205], [148.964346, -35.223146], [148.962873, -35.220021], [148.961122, -35.218652], [148.810041, -35.307412]]]}}, {"type": "Feature", "properties": {"index": "FRAS", "division": "Fraser", "state": "Australian Capital Territory", "year": "1992", "proclaimed": "19920323", "quota": "0", "electors": "0", "deviation": ""}, "geometry": {"type": "MultiPolygon", "coordinates": [[[[149.336346, -35.339884], [149.338798, -35.341068], [149.340841, -35.344985], [149.347934, -35.350567], [149.351091, -35.351369], [149.356532, -35.350636], [149.359988, -35.348565], [149.364567, -35.347753], [149.365056, -35.342202], [149.366726, -35.340094], [149.375315, -35.337618], [149.385827, -35.332298], [149.39018, -35.331056], [149.393997, -35.327599], [149.398036, -35.325252], [149.39718, -35.324254], [149.399287, -35.31909], [149.397201, -35.317313], [149.396688, -35.314182], [149.397281, -35.311003], [149.396428, -35.30968], [149.394497, -35.309191], [149.395342, -35.307312], [149.394685, -35.306559], [149.39479, -35.303157], [149.391606, -35.303456], [149.389676, -35.302698], [149.384175, -35.304349], [149.383697, -35.306471], [149.374174, -35.304695], [149.370172, -35.30824], [149.366807, -35.308022], [149.361666, -35.309025], [149.359659, -35.307538], [149.361926, -35.304294], [149.360954, -35.301605], [149.355025, -35.299653], [149.350553, -35.299358], [149.350505, -35.295952], [149.349701, -35.294404], [149.34808, -35.293479], [149.34887, -35.292069], [149.343211, -35.292048], [149.342838, -35.290187], [149.341439, -35.288961], [149.341498, -35.286703], [149.339709, -35.2863], [149.337698, -35.286971], [149.336325, -35.288737], [149.334765, -35.286293], [149.326499, -35.282426], [149.325415, -35.283473], [149.324581, -35.286388], [149.322477, -35.28674], [149.320388, -35.283993], [149.316202, -35.281775], [149.316575, -35.279535], [149.315286, -35.276286], [149.312139, -35.276587], [149.311697, -35.277525], [149.309768, -35.278268], [149.309061, -35.276206], [149.306645, -35.276544], [149.305417, -35.275532], [149.306229, -35.274501], [149.305766, -35.273993], [149.303846, -35.273377], [149.302711, -35.274109], [149.301643, -35.272894], [149.298462, -35.272156], [149.293636, -35.274201], [149.291434, -35.274248], [149.289293, -35.275699], [149.285433, -35.271631], [149.282976, -35.272059], [149.279627, -35.270652], [149.277021, -35.271338], [149.275378, -35.275052], [149.271808, -35.273485], [149.272076, -35.266965], [149.273461, -35.266102], [149.273792, -35.263214], [149.272554, -35.26183], [149.273179, -35.259179], [149.269571, -35.258922], [149.267593, -35.259578], [149.262805, -35.258666], [149.261291, -35.25692], [149.257329, -35.257203], [149.255379, -35.256345], [149.253011, -35.252231], [149.250653, -35.25224], [149.249651, -35.249354], [149.250324, -35.247987], [149.249429, -35.247183], [149.247233, -35.246527], [149.245803, -35.247379], [149.244266, -35.246411], [149.241867, -35.24636], [149.237943, -35.243572], [149.23489, -35.243419], [149.234374, -35.242792], [149.23455, -35.24047], [149.241242, -35.236755], [149.241518, -35.235032], [149.242764, -35.233636], [149.242934, -35.23133], [149.244808, -35.231371], [149.246794, -35.22915], [149.245531, -35.226723], [149.240728, -35.225046], [149.238697, -35.222227], [149.237105, -35.222363], [149.234392, -35.221003], [149.231715, -35.222002], [149.228775, -35.221687], [149.227037, -35.219844], [149.223762, -35.219016], [149.219988, -35.220706], [149.213785, -35.219605], [149.210454, -35.22634], [149.204883, -35.229549], [149.204279, -35.226689], [149.202456, -35.224625], [149.206099, -35.216268], [149.207555, -35.216047], [149.208568, -35.211501], [149.205895, -35.211567], [149.204226, -35.208952], [149.200672, -35.206357], [149.200716, -35.204954], [149.197769, -35.202537], [149.19239, -35.202536], [149.189542, -35.203324], [149.19019, -35.200127], [149.191497, -35.198504], [149.190287, -35.194353], [149.196388, -35.190942], [149.197037, -35.185499], [149.195365, -35.184583], [149.191465, -35.179295], [149.185822, -35.177832], [149.183629, -35.175618], [149.187779, -35.169529], [149.189097, -35.165677], [149.185495, -35.161201], [149.183737, -35.161052], [149.17941, -35.158805], [149.177613, -35.15931], [149.176381, -35.158283], [149.174229, -35.158474], [149.173357, -35.159845], [149.172947, -35.158759], [149.171901, -35.158642], [149.16979, -35.160326], [149.167696, -35.159881], [149.167702, -35.158341], [149.162554, -35.153783], [149.163393, -35.151582], [149.165066, -35.150099], [149.163195, -35.146968], [149.164879, -35.143727], [149.164312, -35.142046], [149.159195, -35.141708], [149.157444, -35.144129], [149.155787, -35.144627], [149.152668, -35.143973], [149.150061, -35.14547], [149.146775, -35.144856], [149.147379, -35.142999], [149.149298, -35.14206], [149.149637, -35.138669], [149.145875, -35.13615], [149.144961, -35.134596], [149.143162, -35.135987], [149.140501, -35.136293], [149.1386, -35.135257], [149.138679, -35.13288], [149.139966, -35.130832], [149.138642, -35.129451], [149.138819, -35.128466], [149.136822, -35.127813], [149.131698, -35.12906], [149.129566, -35.127669], [149.128759, -35.128021], [149.128083, -35.126591], [149.126856, -35.126389], [149.127186, -35.125622], [149.120902, -35.124517], [149.118076, -35.126527], [149.115503, -35.126247], [149.112652, -35.127711], [149.109725, -35.131145], [149.106853, -35.131181], [149.104328, -35.132328], [149.102863, -35.135229], [149.093322, -35.138657], [149.091017, -35.142339], [148.961122, -35.218652], [148.962873, -35.220021], [148.964346, -35.223146], [148.967075, -35.227205], [148.967507, -35.228714], [148.968405, -35.231731], [148.971278, -35.233671], [148.974834, -35.236329], [148.975804, -35.23852], [148.974547, -35.239885], [148.971386, -35.241142], [148.967255, -35.241286], [148.965423, -35.242471], [148.962298, -35.24362], [148.961975, -35.244949], [148.962478, -35.246745], [148.965459, -35.248039], [148.968081, -35.248613], [148.970919, -35.251523], [148.972607, -35.25436], [148.973972, -35.255258], [148.976055, -35.25533], [148.977313, -35.256731], [148.978498, -35.258779], [148.981336, -35.259174], [148.982413, -35.26], [148.98676, -35.26176], [148.99398, -35.262478], [148.995632, -35.262047], [148.996278, -35.259317], [148.996925, -35.258455], [148.997931, -35.258743], [149.000517, -35.259964], [149.002636, -35.261473], [149.004109, -35.2637], [149.004756, -35.267004], [149.005546, -35.269088], [149.007019, -35.271135], [149.009246, -35.272033], [149.016286, -35.271782], [149.01783, -35.271925], [149.0188, -35.272967], [149.019088, -35.277349], [149.019626, -35.279504], [149.022033, -35.2799], [149.024871, -35.27875], [149.026344, -35.278858], [149.028571, -35.279792], [149.028499, -35.285647], [149.028966, -35.287263], [149.031516, -35.289957], [149.033025, -35.289957], [149.033923, -35.289239], [149.033815, -35.286221], [149.035395, -35.285683], [149.038916, -35.28579], [149.040963, -35.287227], [149.041825, -35.291286], [149.042795, -35.293082], [149.045992, -35.295848], [149.04944, -35.299081], [149.052996, -35.300679], [149.053319, -35.301146], [149.051649, -35.30208], [149.039113, -35.306444], [149.038377, -35.307217], [149.038089, -35.308959], [149.039688, -35.309704], [149.040828, -35.309623], [149.043648, -35.308501], [149.045965, -35.3086], [149.047258, -35.308914], [149.048066, -35.309866], [149.048569, -35.311446], [149.047842, -35.312713], [149.047518, -35.313539], [149.046531, -35.314284], [149.046656, -35.315362], [149.046836, -35.317319], [149.047312, -35.318083], [149.048829, -35.318837], [149.052448, -35.318469], [149.0564, -35.316852], [149.058878, -35.314805], [149.061312, -35.313664], [149.062623, -35.313314], [149.064113, -35.312219], [149.067274, -35.310539], [149.068801, -35.308968], [149.069879, -35.307765], [149.070184, -35.306795], [149.070399, -35.304657], [149.069932, -35.302987], [149.070202, -35.301999], [149.070929, -35.300868], [149.070669, -35.300365], [149.070956, -35.299745], [149.071163, -35.299225], [149.072743, -35.299961], [149.073929, -35.300805], [149.073587, -35.301667], [149.073255, -35.302098], [149.072761, -35.303176], [149.072815, -35.30419], [149.073623, -35.305205], [149.077898, -35.30974], [149.082918, -35.312928], [149.083869, -35.312721], [149.085594, -35.312488], [149.087381, -35.312434], [149.089033, -35.312407], [149.092005, -35.313], [149.091242, -35.315245], [149.092831, -35.315523], [149.09381, -35.315236], [149.094457, -35.315101], [149.096235, -35.314509], [149.098291, -35.313799], [149.103134, -35.313128], [149.107684, -35.312149], [149.119511, -35.309273], [149.119762, -35.30992], [149.119969, -35.310243], [149.120247, -35.310683], [149.120678, -35.311105], [149.121262, -35.311509], [149.121783, -35.311779], [149.122654, -35.312066], [149.123597, -35.312344], [149.124441, -35.312407], [149.125016, -35.312353], [149.125995, -35.312183], [149.126686, -35.311976], [149.127557, -35.311563], [149.128078, -35.311132], [149.1285, -35.310782], [149.133421, -35.313539], [149.133224, -35.313898], [149.133161, -35.314356], [149.133681, -35.315047], [149.133927, -35.315196], [149.13537, -35.316071], [149.134535, -35.316475], [149.133897, -35.3167], [149.133586, -35.316812], [149.13325, -35.316933], [149.132721, -35.31749], [149.132595, -35.318109], [149.132721, -35.318774], [149.133089, -35.319169], [149.128707, -35.320606], [149.128437, -35.321145], [149.127809, -35.321881], [149.126893, -35.322474], [149.12551, -35.322815], [149.124091, -35.322815], [149.123013, -35.322168], [149.121666, -35.322599], [149.119673, -35.32312], [149.115955, -35.32048], [149.115524, -35.319205], [149.115704, -35.319043], [149.115326, -35.318666], [149.113405, -35.320678], [149.111968, -35.320839], [149.111052, -35.320947], [149.110782, -35.321881], [149.110477, -35.322097], [149.109525, -35.322869], [149.109579, -35.323731], [149.110028, -35.324144], [149.111375, -35.324449], [149.112974, -35.324431], [149.113943, -35.32427], [149.114518, -35.324755], [149.114608, -35.325401], [149.116799, -35.328436], [149.116117, -35.336734], [149.124163, -35.348067], [149.12551, -35.34769], [149.127791, -35.346989], [149.130072, -35.345409], [149.132873, -35.344618], [149.135172, -35.344295], [149.138315, -35.344259], [149.140524, -35.344816], [149.143182, -35.345606], [149.146936, -35.345391], [149.15421, -35.343074], [149.157532, -35.341691], [149.159903, -35.340128], [149.161448, -35.33853], [149.16213, -35.335926], [149.161609, -35.330915], [149.161915, -35.330574], [149.151875, -35.324342], [149.150672, -35.32312], [149.151192, -35.322582], [149.153994, -35.318343], [149.154425, -35.31599], [149.154066, -35.315882], [149.154389, -35.312973], [149.153653, -35.312991], [149.152719, -35.31256], [149.150743, -35.312452], [149.149109, -35.310961], [149.148942, -35.310228], [149.144931, -35.307561], [149.143044, -35.309524], [149.14009, -35.307644], [149.140632, -35.303727], [149.138021, -35.299005], [149.130893, -35.294762], [149.126563, -35.294296], [149.124638, -35.294613], [149.123467, -35.296719], [149.120863, -35.298108], [149.119664, -35.297782], [149.121485, -35.300368], [149.120061, -35.299891], [149.118997, -35.300795], [149.11782, -35.299523], [149.117885, -35.29837], [149.115684, -35.299088], [149.113593, -35.297657], [149.11245, -35.298439], [149.11223, -35.297667], [149.107405, -35.295979], [149.105678, -35.298727], [149.102093, -35.298773], [149.10144, -35.301494], [149.100096, -35.300475], [149.100068, -35.29849], [149.09805, -35.299284], [149.095922, -35.298521], [149.096618, -35.297405], [149.094873, -35.293571], [149.093406, -35.292771], [149.095823, -35.291223], [149.096656, -35.287893], [149.094528, -35.287374], [149.093021, -35.289799], [149.089262, -35.291107], [149.088322, -35.292285], [149.088167, -35.294264], [149.087211, -35.294412], [149.087217, -35.297305], [149.089576, -35.297976], [149.086026, -35.297837], [149.082419, -35.299705], [149.082942, -35.302246], [149.084355, -35.303898], [149.082357, -35.303952], [149.082005, -35.3025], [149.080402, -35.30234], [149.081061, -35.30084], [149.078539, -35.300967], [149.076215, -35.299801], [149.075711, -35.297983], [149.073756, -35.300124], [149.071123, -35.298567], [149.072514, -35.298019], [149.072292, -35.296944], [149.074144, -35.296928], [149.078671, -35.293591], [149.078343, -35.295058], [149.07931, -35.297343], [149.081138, -35.297808], [149.083012, -35.296961], [149.084553, -35.294696], [149.084708, -35.29182], [149.086148, -35.290531], [149.085091, -35.289846], [149.085877, -35.288521], [149.087218, -35.287517], [149.088583, -35.288334], [149.089191, -35.287685], [149.08803, -35.28515], [149.091283, -35.286219], [149.099252, -35.2856], [149.099884, -35.287139], [149.099019, -35.290121], [149.099629, -35.291277], [149.098324, -35.292023], [149.099501, -35.293716], [149.101406, -35.294277], [149.102434, -35.291494], [149.101592, -35.288617], [149.103116, -35.28513], [149.105055, -35.284189], [149.109661, -35.284328], [149.110969, -35.282031], [149.114443, -35.280492], [149.114222, -35.280892], [149.112207, -35.281754], [149.110274, -35.284577], [149.113137, -35.286327], [149.114069, -35.289239], [149.118459, -35.293608], [149.120584, -35.294555], [149.122161, -35.293264], [149.122128, -35.292342], [149.119338, -35.290922], [149.119056, -35.288706], [149.120178, -35.287298], [149.122879, -35.28656], [149.125956, -35.287644], [149.126949, -35.291726], [149.129256, -35.290535], [149.132332, -35.291055], [149.133918, -35.289995], [149.132645, -35.28928], [149.132941, -35.288436], [149.13651, -35.289256], [149.134131, -35.290198], [149.137452, -35.290903], [149.143247, -35.295177], [149.143294, -35.299473], [149.142214, -35.301499], [149.14696, -35.301304], [149.150315, -35.30469], [149.152369, -35.30496], [149.152881, -35.304442], [149.154659, -35.303526], [149.156006, -35.302897], [149.157784, -35.302341], [149.158897, -35.302502], [149.160586, -35.304119], [149.162004, -35.304837], [149.163854, -35.305124], [149.165291, -35.305609], [149.168326, -35.305412], [149.169691, -35.304316], [149.171972, -35.302233], [149.17393, -35.30243], [149.175618, -35.3034], [149.176354, -35.304891], [149.176121, -35.305609], [149.175654, -35.306346], [149.17578, -35.307136], [149.175546, -35.308321], [149.175187, -35.309686], [149.177073, -35.310908], [149.178258, -35.312524], [149.178635, -35.313619], [149.177468, -35.314428], [149.177073, -35.316134], [149.177755, -35.316906], [149.177773, -35.317625], [149.178941, -35.317876], [149.182281, -35.318936], [149.18573, -35.319528], [149.188028, -35.320857], [149.192662, -35.329442], [149.192878, -35.330735], [149.19101, -35.334291], [149.190615, -35.336195], [149.190507, -35.338566], [149.191261, -35.34011], [149.195895, -35.341152], [149.19902, -35.341655], [149.200529, -35.341152], [149.201786, -35.338746], [149.203366, -35.337524], [149.206168, -35.33695], [149.21504, -35.333824], [149.217878, -35.3321], [149.220141, -35.332352], [149.222188, -35.332998], [149.223015, -35.335261], [149.22323, -35.338063], [149.225098, -35.33871], [149.22754, -35.338063], [149.230773, -35.337237], [149.231348, -35.33598], [149.235622, -35.337488], [149.238101, -35.33756], [149.241415, -35.335926], [149.244441, -35.333367], [149.246291, -35.331023], [149.245932, -35.32858], [149.244136, -35.327754], [149.242088, -35.327215], [149.24216, -35.325311], [149.244387, -35.324018], [149.247584, -35.325707], [149.248769, -35.327718], [149.251284, -35.329658], [149.254912, -35.329227], [149.25897, -35.331148], [149.263496, -35.331023], [149.269351, -35.333824], [149.274524, -35.334794], [149.276895, -35.332891], [149.280307, -35.333609], [149.28063, -35.336375], [149.282498, -35.330664], [149.285479, -35.329263], [149.284294, -35.326748], [149.285084, -35.32312], [149.286377, -35.322617], [149.289107, -35.32488], [149.291622, -35.325204], [149.293059, -35.323228], [149.293813, -35.321432], [149.297153, -35.321684], [149.297585, -35.32075], [149.301177, -35.320283], [149.301608, -35.321648], [149.30229, -35.322438], [149.30423, -35.322366], [149.306493, -35.325132], [149.305702, -35.327323], [149.307965, -35.331418], [149.307211, -35.332064], [149.303799, -35.332064], [149.30308, -35.332424], [149.303116, -35.333537], [149.304122, -35.334256], [149.309546, -35.335513], [149.316011, -35.335764], [149.316945, -35.336411], [149.316901, -35.336536], [149.336346, -35.339884]]], [[[150.695385, -35.185156], [150.694415, -35.186768], [150.695731, -35.190068], [150.693915, -35.190702], [150.69424, -35.191434], [150.692799, -35.193087], [150.690967, -35.193507], [150.69232, -35.194158], [150.691791, -35.197462], [150.695143, -35.200872], [150.696958, -35.200409], [150.699088, -35.1975], [150.702359, -35.19567], [150.702351, -35.194382], [150.707634, -35.19136], [150.707658, -35.190458], [150.710742, -35.187797], [150.710392, -35.185719], [150.712102, -35.185298], [150.71304, -35.183285], [150.718643, -35.179205], [150.720772, -35.178485], [150.72227, -35.176145], [150.723648, -35.175722], [150.724869, -35.172951], [150.728681, -35.17317], [150.731087, -35.1752], [150.731673, -35.175976], [150.730676, -35.17673], [150.730835, -35.178763], [150.737443, -35.180084], [150.739031, -35.179619], [150.739481, -35.177546], [150.741481, -35.175465], [150.746167, -35.175158], [150.746493, -35.173399], [150.7489, -35.172766], [150.751025, -35.170099], [150.752857, -35.169535], [150.753999, -35.170743], [150.7556, -35.170751], [150.757729, -35.167554], [150.75553, -35.16836], [150.754664, -35.167683], [150.757749, -35.167168], [150.760481, -35.16227], [150.760398, -35.159206], [150.757965, -35.158523], [150.758089, -35.15566], [150.759023, -35.153904], [150.7626, -35.152675], [150.761804, -35.149436], [150.762263, -35.143283], [150.764952, -35.139487], [150.764205, -35.136692], [150.765575, -35.134838], [150.764081, -35.134401], [150.763687, -35.133498], [150.764511, -35.132571], [150.763875, -35.131251], [150.765777, -35.127982], [150.764486, -35.125872], [150.764915, -35.124156], [150.763141, -35.12409], [150.762526, -35.124961], [150.760033, -35.125622], [150.755558, -35.123469], [150.753134, -35.124202], [150.751274, -35.126426], [150.749663, -35.130427], [150.747933, -35.131478], [150.74774, -35.134125], [150.745989, -35.135663], [150.742572, -35.13652], [150.741501, -35.135341], [150.73933, -35.137134], [150.735676, -35.137088], [150.728013, -35.135176], [150.7275, -35.134], [150.725485, -35.135635], [150.723152, -35.135939], [150.719768, -35.134663], [150.715113, -35.130752], [150.708291, -35.122247], [150.701604, -35.122862], [150.661053, -35.117824], [150.661641, -35.119713], [150.66064, -35.124451], [150.657594, -35.129], [150.651303, -35.132201], [150.647523, -35.136904], [150.643638, -35.139545], [150.642383, -35.141942], [150.638627, -35.145701], [150.633428, -35.14925], [150.627903, -35.149976], [150.624134, -35.149097], [150.615275, -35.14279], [150.616649, -35.145017], [150.618144, -35.145283], [150.62122, -35.147863], [150.617393, -35.147626], [150.614739, -35.148555], [150.614309, -35.147909], [150.61557, -35.145082], [150.614522, -35.145505], [150.614141, -35.147249], [150.612331, -35.147196], [150.609153, -35.144371], [150.607504, -35.143847], [150.603882, -35.146087], [150.599545, -35.146376], [150.596695, -35.145816], [150.594674, -35.144014], [150.592868, -35.143937], [150.59343, -35.146914], [150.596246, -35.15218], [150.602606, -35.153179], [150.604378, -35.154313], [150.605105, -35.156175], [150.601016, -35.164528], [150.601334, -35.170066], [150.594652, -35.170638], [150.591249, -35.172472], [150.592547, -35.184281], [150.593971, -35.185018], [150.601028, -35.177862], [150.61215, -35.172245], [150.632623, -35.166422], [150.646468, -35.163837], [150.654952, -35.163097], [150.661445, -35.163233], [150.662369, -35.165256], [150.663778, -35.165392], [150.667921, -35.163296], [150.671973, -35.163876], [150.675585, -35.165127], [150.676482, -35.166162], [150.674887, -35.165223], [150.675034, -35.166469], [150.677045, -35.167668], [150.681264, -35.166874], [150.681694, -35.165388], [150.6851, -35.166136], [150.686216, -35.168203], [150.681551, -35.170254], [150.685969, -35.17095], [150.688278, -35.169474], [150.690711, -35.170145], [150.691426, -35.172195], [150.689384, -35.175162], [150.688248, -35.175657], [150.688206, -35.176559], [150.689362, -35.177953], [150.691638, -35.176448], [150.691939, -35.178038], [150.695707, -35.177127], [150.694109, -35.178951], [150.693516, -35.181281], [150.696001, -35.181981], [150.695598, -35.182394], [150.69636, -35.182813], [150.695077, -35.184381], [150.695385, -35.185156]]], [[[150.764287, -35.119117], [150.764684, -35.122094], [150.765362, -35.122581], [150.764849, -35.123697], [150.765894, -35.123602], [150.766302, -35.122439], [150.769379, -35.123112], [150.771362, -35.122541], [150.772826, -35.118505], [150.771491, -35.113781], [150.76831, -35.112335], [150.767544, -35.113294], [150.767995, -35.113995], [150.766899, -35.114424], [150.767038, -35.115168], [150.765054, -35.117228], [150.764287, -35.119117]]], [[[150.694308, -35.182416], [150.693549, -35.183758], [150.694762, -35.18468], [150.694907, -35.183894], [150.695663, -35.182967], [150.694308, -35.182416]]]]}}]}