{"type": "FeatureCollection", "features": [{"type": "Feature", "properties": {"index": "CANB", "division": "Canberra", "state": "Australian Capital Territory", "year": "1984", "proclaimed": "19840823", "quota": "72890", "electors": "75323", "deviation": "+3.33%"}, "geometry": {"type": "Polygon", "coordinates": [[[148.966838, -35.215462], [148.961731, -35.218467], [148.961438, -35.218639], [148.950534, -35.225157], [148.916721, -35.244973], [148.909015, -35.24947], [148.896264, -35.256945], [148.874226, -35.269856], [148.849229, -35.28449], [148.810041, -35.307412], [148.808951, -35.308455], [148.807854, -35.309647], [148.807605, -35.310425], [148.807226, -35.310812], [148.805142, -35.314669], [148.803558, -35.316661], [148.80327, -35.318028], [148.802693, -35.319806], [148.800865, -35.321723], [148.801939, -35.32435], [148.802106, -35.32553], [148.801531, -35.329267], [148.799809, -35.330932], [148.7983, -35.332139], [148.797472, -35.333825], [148.795109, -35.336386], [148.794119, -35.338197], [148.793247, -35.339156], [148.795233, -35.342113], [148.796555, -35.346339], [148.79859, -35.348352], [148.799107, -35.350616], [148.7992, -35.353657], [148.798949, -35.354573], [148.798445, -35.355784], [148.797298, -35.357085], [148.796395, -35.358616], [148.799451, -35.359224], [148.799998, -35.359892], [148.80065, -35.360687], [148.800604, -35.361884], [148.801361, -35.362815], [148.80316, -35.363399], [148.804783, -35.364897], [148.805565, -35.365361], [148.805595, -35.366303], [148.80488, -35.367672], [148.804292, -35.368561], [148.804092, -35.369589], [148.804145, -35.370537], [148.803784, -35.372516], [148.803952, -35.373958], [148.804209, -35.37514], [148.804108, -35.376121], [148.804626, -35.377607], [148.805344, -35.378841], [148.806972, -35.379225], [148.807908, -35.379854], [148.808675, -35.380591], [148.808757, -35.381518], [148.808702, -35.382373], [148.8061, -35.383974], [148.804826, -35.385028], [148.804803, -35.386924], [148.803648, -35.388739], [148.801183, -35.389639], [148.799445, -35.390158], [148.796756, -35.391634], [148.795719, -35.39292], [148.79588, -35.394284], [148.795876, -35.396309], [148.796077, -35.398056], [148.795658, -35.400333], [148.796234, -35.401516], [148.796038, -35.402368], [148.79648, -35.40374], [148.796281, -35.404855], [148.796328, -35.405789], [148.796119, -35.406549], [148.795471, -35.407009], [148.792434, -35.407294], [148.788511, -35.408049], [148.787487, -35.40842], [148.785764, -35.408748], [148.785776, -35.410466], [148.786252, -35.412673], [148.787316, -35.414083], [148.788334, -35.41445], [148.790073, -35.415468], [148.789753, -35.416841], [148.788884, -35.417792], [148.789323, -35.419444], [148.788829, -35.420746], [148.788853, -35.421898], [148.787563, -35.422978], [148.788297, -35.424586], [148.788539, -35.425698], [148.788868, -35.426382], [148.787404, -35.427409], [148.786195, -35.428827], [148.785301, -35.430236], [148.785039, -35.431351], [148.784206, -35.432188], [148.783734, -35.432472], [148.780917, -35.433227], [148.780143, -35.435152], [148.778613, -35.437267], [148.777524, -35.439998], [148.774822, -35.44174], [148.774333, -35.443902], [148.774627, -35.446091], [148.773002, -35.449316], [148.773828, -35.451549], [148.774567, -35.452567], [148.774962, -35.453795], [148.77594, -35.454683], [148.77499, -35.455966], [148.774745, -35.45755], [148.7731, -35.459802], [148.772727, -35.46079], [148.772881, -35.462355], [148.771723, -35.463436], [148.77011, -35.463867], [148.768855, -35.464826], [148.767058, -35.465405], [148.766809, -35.46735], [148.766937, -35.47018], [148.766886, -35.471056], [148.767974, -35.472231], [148.769235, -35.474278], [148.77063, -35.475563], [148.770297, -35.478298], [148.770827, -35.47998], [148.77255, -35.482109], [148.77359, -35.48384], [148.774462, -35.484882], [148.774354, -35.486003], [148.773124, -35.48654], [148.771021, -35.487649], [148.7699, -35.487791], [148.768906, -35.488535], [148.766204, -35.490138], [148.765183, -35.490825], [148.764305, -35.491919], [148.762675, -35.495505], [148.763049, -35.496601], [148.764089, -35.497701], [148.764733, -35.499149], [148.764608, -35.501142], [148.764681, -35.502678], [148.765516, -35.504936], [148.76706, -35.506141], [148.768094, -35.50675], [148.768588, -35.507999], [148.766335, -35.510447], [148.76722, -35.511771], [148.767476, -35.51302], [148.76725, -35.513822], [148.76715, -35.514652], [148.767412, -35.516382], [148.767463, -35.518078], [148.767746, -35.519585], [148.768239, -35.521195], [148.767871, -35.522815], [148.768105, -35.524448], [148.769872, -35.526112], [148.772364, -35.529329], [148.772375, -35.530749], [148.771253, -35.534058], [148.769973, -35.536284], [148.769956, -35.537315], [148.769658, -35.538655], [148.76971, -35.540471], [148.769685, -35.542], [148.769231, -35.544096], [148.769948, -35.54589], [148.771191, -35.54757], [148.77312, -35.549033], [148.773915, -35.550741], [148.774883, -35.553091], [148.775034, -35.554317], [148.775684, -35.554914], [148.778231, -35.558852], [148.778514, -35.563669], [148.773018, -35.567911], [148.773039, -35.568157], [148.773855, -35.569487], [148.775393, -35.571151], [148.777558, -35.574086], [148.778801, -35.575635], [148.779766, -35.576541], [148.780611, -35.577888], [148.781289, -35.578376], [148.782121, -35.579122], [148.782112, -35.580199], [148.782467, -35.581287], [148.783959, -35.581604], [148.786003, -35.582351], [148.786504, -35.58368], [148.786972, -35.584551], [148.7876, -35.585927], [148.788153, -35.586289], [148.78836, -35.587337], [148.788758, -35.588179], [148.788315, -35.588786], [148.787316, -35.59064], [148.783868, -35.593334], [148.783191, -35.595258], [148.778366, -35.596505], [148.77436, -35.597897], [148.77363, -35.598463], [148.77327, -35.599385], [148.77249, -35.600265], [148.772116, -35.601336], [148.770943, -35.601981], [148.769814, -35.602386], [148.768473, -35.603186], [148.768856, -35.604132], [148.769946, -35.605393], [148.770498, -35.606145], [148.771008, -35.607056], [148.771356, -35.607922], [148.772447, -35.60912], [148.773699, -35.610021], [148.774974, -35.610619], [148.776576, -35.611801], [148.778157, -35.613338], [148.779037, -35.614823], [148.779455, -35.61582], [148.780439, -35.617586], [148.780284, -35.618152], [148.78065, -35.620301], [148.779467, -35.622625], [148.779614, -35.623724], [148.780346, -35.624997], [148.780758, -35.625994], [148.782361, -35.626208], [148.783017, -35.627099], [148.783462, -35.628342], [148.782971, -35.62974], [148.782444, -35.63005], [148.78177, -35.630729], [148.78043, -35.63286], [148.776758, -35.635903], [148.775501, -35.636567], [148.770818, -35.639938], [148.771216, -35.640597], [148.771665, -35.640929], [148.771813, -35.641723], [148.771412, -35.643103], [148.77162, -35.644418], [148.771365, -35.645738], [148.770419, -35.646146], [148.769073, -35.645837], [148.767495, -35.647323], [148.76838, -35.648475], [148.769493, -35.649422], [148.769883, -35.649652], [148.771826, -35.649661], [148.772799, -35.649918], [148.772992, -35.651176], [148.772927, -35.652133], [148.772183, -35.65358], [148.772714, -35.654559], [148.773636, -35.655457], [148.775233, -35.655706], [148.776433, -35.655707], [148.77819, -35.655845], [148.780927, -35.655918], [148.781458, -35.655808], [148.782387, -35.655957], [148.783304, -35.656231], [148.784121, -35.656765], [148.785496, -35.657125], [148.786422, -35.6578], [148.7863, -35.658409], [148.786951, -35.660462], [148.788182, -35.660286], [148.78986, -35.659662], [148.790554, -35.659235], [148.791579, -35.659989], [148.793636, -35.661875], [148.794867, -35.66344], [148.796375, -35.664147], [148.796296, -35.664756], [148.797518, -35.665914], [148.798434, -35.666492], [148.798519, -35.666869], [148.797896, -35.667988], [148.797508, -35.668955], [148.797419, -35.670153], [148.797166, -35.67156], [148.797979, -35.674018], [148.797992, -35.675054], [148.798377, -35.676384], [148.797965, -35.678302], [148.797614, -35.678977], [148.797556, -35.680341], [148.796589, -35.682524], [148.795675, -35.683516], [148.795523, -35.683999], [148.793225, -35.686726], [148.792926, -35.687933], [148.792542, -35.689107], [148.791407, -35.689557], [148.791171, -35.690751], [148.791483, -35.691658], [148.791105, -35.692041], [148.791367, -35.69324], [148.790462, -35.694649], [148.789354, -35.696485], [148.788687, -35.697181], [148.788417, -35.69774], [148.789047, -35.699061], [148.790045, -35.700921], [148.790255, -35.701645], [148.791347, -35.703636], [148.792775, -35.704505], [148.793263, -35.705019], [148.793153, -35.705519], [148.79516, -35.707251], [148.796127, -35.707909], [148.796317, -35.708296], [148.796565, -35.709449], [148.798069, -35.710266], [148.798915, -35.710444], [148.799296, -35.710874], [148.800354, -35.711496], [148.80174, -35.712079], [148.804045, -35.713967], [148.805302, -35.713996], [148.807355, -35.715527], [148.808604, -35.717269], [148.810254, -35.717986], [148.811494, -35.718227], [148.811875, -35.719041], [148.812719, -35.719786], [148.813276, -35.719905], [148.814138, -35.719859], [148.815823, -35.719493], [148.816938, -35.719088], [148.818749, -35.718718], [148.820684, -35.719515], [148.822495, -35.720971], [148.822605, -35.721579], [148.823104, -35.722599], [148.823144, -35.723238], [148.823575, -35.724213], [148.824906, -35.724984], [148.825788, -35.725213], [148.827871, -35.726148], [148.829033, -35.727701], [148.829238, -35.728466], [148.829478, -35.729952], [148.830182, -35.732159], [148.831341, -35.733907], [148.832873, -35.735021], [148.833047, -35.736324], [148.834032, -35.738138], [148.834726, -35.740511], [148.835193, -35.741061], [148.835715, -35.741884], [148.837171, -35.743153], [148.83863, -35.744237], [148.839623, -35.74548], [148.840738, -35.746444], [148.84267, -35.747506], [148.844513, -35.74895], [148.846045, -35.749445], [148.847093, -35.750469], [148.84878, -35.751016], [148.849538, -35.750866], [148.850972, -35.751247], [148.853457, -35.75098], [148.854026, -35.751082], [148.856132, -35.753518], [148.854938, -35.759197], [148.855652, -35.760874], [148.857501, -35.761397], [148.859648, -35.760626], [148.861175, -35.759203], [148.862456, -35.75755], [148.861176, -35.75434], [148.860737, -35.752874], [148.861439, -35.7501], [148.862743, -35.749388], [148.863899, -35.748104], [148.864071, -35.746922], [148.864884, -35.743749], [148.864863, -35.742375], [148.866738, -35.740665], [148.867477, -35.738702], [148.866792, -35.737165], [148.86407, -35.733869], [148.865765, -35.731624], [148.867246, -35.731907], [148.868591, -35.731092], [148.868659, -35.729963], [148.869366, -35.72922], [148.870416, -35.727717], [148.871608, -35.725564], [148.872115, -35.723931], [148.872305, -35.722937], [148.872491, -35.721422], [148.874087, -35.720192], [148.877693, -35.714936], [148.878164, -35.715348], [148.880343, -35.715793], [148.883614, -35.717122], [148.884942, -35.717854], [148.886633, -35.719136], [148.887192, -35.7204], [148.888026, -35.721649], [148.889403, -35.722723], [148.890487, -35.724541], [148.892315, -35.728359], [148.892479, -35.730487], [148.888368, -35.733671], [148.888036, -35.7356], [148.888087, -35.737026], [148.890314, -35.739423], [148.890855, -35.740469], [148.891726, -35.744151], [148.893008, -35.746052], [148.894087, -35.751288], [148.895105, -35.751446], [148.897428, -35.750955], [148.898777, -35.751215], [148.901043, -35.754871], [148.902395, -35.755956], [148.902902, -35.756505], [148.903348, -35.757798], [148.902833, -35.759272], [148.902352, -35.760206], [148.901774, -35.761702], [148.902312, -35.763202], [148.901885, -35.763644], [148.900486, -35.765485], [148.900124, -35.766471], [148.899418, -35.767601], [148.897224, -35.768825], [148.896138, -35.769899], [148.895221, -35.770611], [148.894887, -35.771654], [148.894793, -35.773229], [148.895284, -35.775342], [148.895044, -35.777043], [148.894688, -35.777668], [148.895501, -35.779265], [148.894809, -35.780469], [148.895432, -35.781791], [148.89514, -35.783051], [148.894956, -35.784627], [148.895366, -35.785519], [148.895433, -35.786751], [148.896204, -35.788622], [148.89634, -35.789441], [148.896523, -35.791588], [148.896935, -35.792985], [148.896971, -35.79346], [148.897776, -35.79465], [148.897098, -35.795768], [148.896349, -35.796721], [148.89464, -35.798465], [148.893118, -35.799293], [148.893198, -35.800341], [148.892963, -35.801516], [148.892032, -35.802543], [148.890784, -35.803548], [148.890302, -35.804351], [148.88946, -35.807193], [148.889159, -35.807635], [148.887504, -35.808755], [148.886881, -35.809564], [148.886623, -35.810063], [148.887645, -35.811212], [148.888941, -35.812046], [148.89104, -35.813846], [148.891852, -35.814932], [148.892052, -35.816077], [148.892426, -35.816626], [148.893672, -35.81726], [148.894861, -35.817652], [148.895747, -35.817599], [148.896577, -35.817924], [148.897275, -35.820855], [148.897683, -35.823271], [148.897596, -35.82472], [148.899603, -35.825879], [148.901776, -35.82639], [148.903561, -35.826134], [148.906203, -35.828013], [148.907065, -35.829563], [148.906596, -35.832084], [148.905088, -35.83325], [148.903802, -35.833356], [148.903249, -35.834182], [148.90314, -35.835173], [148.903249, -35.83621], [148.903625, -35.837223], [148.904348, -35.838516], [148.904523, -35.838989], [148.905268, -35.839639], [148.90477, -35.840489], [148.904165, -35.841333], [148.903936, -35.842505], [148.904778, -35.843365], [148.904839, -35.844147], [148.906017, -35.844955], [148.906444, -35.845875], [148.906409, -35.846254], [148.907291, -35.846968], [148.907842, -35.847863], [148.907892, -35.848356], [148.907603, -35.848939], [148.907901, -35.849885], [148.907788, -35.850765], [148.908634, -35.851704], [148.908974, -35.852499], [148.909367, -35.853065], [148.91054, -35.853235], [148.911613, -35.854573], [148.912654, -35.85546], [148.916306, -35.855809], [148.917616, -35.856299], [148.918109, -35.85659], [148.920059, -35.85729], [148.9205, -35.858807], [148.919456, -35.859817], [148.919783, -35.86079], [148.920487, -35.861121], [148.922073, -35.862366], [148.923524, -35.862958], [148.924983, -35.863808], [148.926386, -35.865065], [148.926503, -35.865832], [148.927702, -35.867055], [148.928915, -35.867791], [148.930301, -35.868172], [148.93136, -35.869372], [148.932237, -35.870567], [148.932168, -35.872967], [148.932719, -35.87365], [148.934157, -35.873988], [148.93553, -35.874171], [148.936025, -35.874507], [148.937496, -35.874649], [148.940614, -35.875839], [148.941131, -35.877389], [148.942165, -35.878491], [148.943032, -35.879747], [148.944412, -35.881071], [148.944562, -35.881391], [148.949755, -35.885631], [148.950928, -35.886382], [148.95277, -35.888208], [148.955551, -35.88957], [148.956265, -35.890014], [148.956598, -35.890437], [148.958406, -35.891788], [148.958647, -35.893024], [148.959591, -35.894349], [148.959133, -35.895456], [148.961624, -35.8968], [148.962166, -35.896761], [148.964238, -35.897046], [148.966288, -35.897268], [148.966348, -35.896883], [148.967101, -35.895526], [148.967215, -35.895035], [148.967855, -35.893972], [148.96999, -35.893291], [148.970578, -35.892945], [148.97314, -35.892363], [148.975656, -35.892176], [148.977311, -35.892423], [148.979968, -35.893205], [148.981676, -35.893837], [148.98376, -35.893993], [148.984438, -35.894213], [148.986733, -35.895463], [148.98951, -35.895988], [148.990432, -35.895967], [148.992067, -35.89534], [148.993326, -35.895225], [148.995316, -35.895966], [148.996888, -35.896205], [148.997983, -35.896887], [148.997398, -35.900995], [148.999379, -35.902625], [149.001217, -35.902025], [149.003487, -35.901203], [149.00882, -35.901306], [149.01093, -35.900742], [149.012198, -35.899697], [149.013853, -35.90024], [149.015122, -35.901712], [149.016171, -35.901941], [149.017489, -35.903476], [149.019075, -35.904444], [149.020617, -35.905228], [149.022681, -35.906086], [149.023697, -35.907129], [149.023825, -35.908068], [149.024913, -35.910475], [149.025562, -35.911334], [149.026408, -35.912147], [149.027606, -35.912892], [149.028373, -35.912421], [149.02952, -35.91203], [149.030145, -35.911703], [149.031159, -35.911324], [149.032376, -35.91114], [149.0337, -35.911196], [149.034117, -35.911941], [149.035048, -35.912977], [149.036133, -35.913922], [149.038479, -35.914396], [149.039718, -35.914062], [149.041232, -35.914611], [149.042452, -35.915848], [149.043763, -35.916535], [149.04387, -35.917417], [149.044564, -35.919537], [149.04608, -35.920762], [149.048811, -35.92041], [149.049339, -35.920129], [149.049704, -35.919716], [149.050027, -35.918776], [149.051263, -35.917301], [149.051981, -35.916728], [149.052543, -35.916148], [149.052564, -35.915764], [149.053211, -35.91558], [149.05378, -35.915006], [149.054498, -35.91453], [149.055067, -35.913675], [149.055164, -35.913028], [149.055445, -35.912362], [149.055731, -35.911136], [149.055962, -35.910505], [149.05568, -35.910213], [149.055848, -35.909513], [149.056733, -35.908309], [149.057133, -35.907397], [149.054785, -35.905399], [149.051698, -35.903534], [149.051752, -35.902296], [149.053051, -35.900237], [149.054224, -35.898895], [149.055996, -35.897471], [149.056847, -35.897293], [149.058113, -35.896575], [149.058908, -35.896001], [149.058578, -35.894666], [149.060814, -35.893283], [149.06125, -35.891828], [149.061738, -35.891448], [149.060433, -35.889338], [149.06014, -35.888293], [149.061068, -35.886961], [149.062377, -35.884516], [149.062447, -35.884073], [149.061946, -35.88334], [149.06181, -35.882294], [149.061523, -35.881708], [149.061736, -35.880683], [149.061518, -35.880073], [149.061711, -35.879879], [149.062767, -35.877983], [149.064381, -35.875305], [149.064408, -35.874932], [149.065384, -35.873882], [149.067644, -35.870859], [149.069651, -35.869775], [149.070254, -35.869394], [149.072819, -35.866389], [149.074272, -35.865846], [149.07464, -35.864911], [149.074754, -35.863862], [149.076039, -35.86231], [149.076789, -35.860646], [149.079685, -35.859055], [149.080863, -35.857143], [149.080773, -35.856186], [149.082121, -35.853208], [149.083702, -35.852893], [149.084522, -35.852289], [149.084228, -35.850227], [149.085274, -35.849839], [149.086135, -35.849], [149.086574, -35.848248], [149.088894, -35.848199], [149.093266, -35.846476], [149.094851, -35.846825], [149.095682, -35.845716], [149.09606, -35.844317], [149.095836, -35.843327], [149.094588, -35.841549], [149.095376, -35.839146], [149.093395, -35.838305], [149.09298, -35.838266], [149.092949, -35.837831], [149.09263, -35.837362], [149.091978, -35.835416], [149.092214, -35.8349], [149.093658, -35.833978], [149.093661, -35.83215], [149.093994, -35.83133], [149.094519, -35.830841], [149.0945, -35.830073], [149.094725, -35.828766], [149.094321, -35.827152], [149.093371, -35.825729], [149.093517, -35.824221], [149.094987, -35.822039], [149.094504, -35.821215], [149.095419, -35.820135], [149.096028, -35.81976], [149.095823, -35.8183], [149.095931, -35.817612], [149.097238, -35.81743], [149.098789, -35.81688], [149.100453, -35.815367], [149.100583, -35.814811], [149.099624, -35.811909], [149.100282, -35.811414], [149.100457, -35.810044], [149.099611, -35.809658], [149.098237, -35.807904], [149.098705, -35.807524], [149.099611, -35.807246], [149.099509, -35.806707], [149.100089, -35.806041], [149.101088, -35.805063], [149.101481, -35.803698], [149.099805, -35.80328], [149.099775, -35.801716], [149.099147, -35.801277], [149.098263, -35.800427], [149.097099, -35.799674], [149.096732, -35.798272], [149.097047, -35.796833], [149.097661, -35.796017], [149.098711, -35.79524], [149.099476, -35.795111], [149.100201, -35.7941], [149.100463, -35.793188], [149.1006, -35.791457], [149.100232, -35.789757], [149.097806, -35.788293], [149.096232, -35.787227], [149.093498, -35.787226], [149.093417, -35.786515], [149.093033, -35.785829], [149.092936, -35.784792], [149.093324, -35.783869], [149.093144, -35.783159], [149.09468, -35.781452], [149.095097, -35.780625], [149.095763, -35.780216], [149.096233, -35.778914], [149.097391, -35.777414], [149.097289, -35.777295], [149.0964, -35.776249], [149.095914, -35.775993], [149.094795, -35.775773], [149.092982, -35.774485], [149.09165, -35.773939], [149.093069, -35.771522], [149.093325, -35.770851], [149.092772, -35.768767], [149.092346, -35.768099], [149.091117, -35.767003], [149.090716, -35.7656], [149.092826, -35.763611], [149.093244, -35.762881], [149.093617, -35.761832], [149.093268, -35.761013], [149.092948, -35.759112], [149.094648, -35.756591], [149.094622, -35.755732], [149.094898, -35.754946], [149.094909, -35.754275], [149.095584, -35.753328], [149.096438, -35.75278], [149.096301, -35.75211], [149.095089, -35.750316], [149.09576, -35.749631], [149.096974, -35.747448], [149.095618, -35.746037], [149.096198, -35.743805], [149.096792, -35.742879], [149.097694, -35.741899], [149.098018, -35.740619], [149.098394, -35.739746], [149.099008, -35.739318], [149.099005, -35.739043], [149.100699, -35.736392], [149.100763, -35.735604], [149.10061, -35.73491], [149.100592, -35.733488], [149.099013, -35.730643], [149.099056, -35.729323], [149.100064, -35.728383], [149.103737, -35.726049], [149.104121, -35.725193], [149.104194, -35.72427], [149.103918, -35.723379], [149.102462, -35.721769], [149.102426, -35.72095], [149.101827, -35.720118], [149.100714, -35.719078], [149.100646, -35.718655], [149.100124, -35.717055], [149.099371, -35.716218], [149.099514, -35.714819], [149.09977, -35.714679], [149.101101, -35.713112], [149.100973, -35.712805], [149.101253, -35.712423], [149.101578, -35.710688], [149.101582, -35.709647], [149.101893, -35.709044], [149.101939, -35.708017], [149.102709, -35.7068], [149.10339, -35.706218], [149.104065, -35.705029], [149.105304, -35.704058], [149.106301, -35.703483], [149.107524, -35.702358], [149.107878, -35.701319], [149.107863, -35.70062], [149.108694, -35.699543], [149.109483, -35.69664], [149.108589, -35.695644], [149.108224, -35.694965], [149.107948, -35.694102], [149.106693, -35.692937], [149.106001, -35.69119], [149.104281, -35.691105], [149.103793, -35.690759], [149.103825, -35.689808], [149.104365, -35.689105], [149.104879, -35.687286], [149.104827, -35.686399], [149.104439, -35.684867], [149.103113, -35.684836], [149.102149, -35.684562], [149.101513, -35.684101], [149.09953, -35.683842], [149.096122, -35.680556], [149.095379, -35.679285], [149.095561, -35.677955], [149.095037, -35.676784], [149.096135, -35.675786], [149.096647, -35.674442], [149.097183, -35.674135], [149.09729, -35.67359], [149.096678, -35.672775], [149.096728, -35.672208], [149.095974, -35.669212], [149.09601, -35.668668], [149.095737, -35.668057], [149.095693, -35.667164], [149.096038, -35.6653], [149.096668, -35.664534], [149.096724, -35.663182], [149.095904, -35.661957], [149.095914, -35.661515], [149.096252, -35.660345], [149.097888, -35.658778], [149.098572, -35.657231], [149.098392, -35.656817], [149.097649, -35.655964], [149.096069, -35.65436], [149.095415, -35.653043], [149.095454, -35.652574], [149.096831, -35.651769], [149.097126, -35.648737], [149.097495, -35.647313], [149.096145, -35.645618], [149.096329, -35.644151], [149.096007, -35.642519], [149.095717, -35.640344], [149.093736, -35.640026], [149.092505, -35.639662], [149.090735, -35.639967], [149.089091, -35.641032], [149.088296, -35.640763], [149.087612, -35.639697], [149.08774, -35.637852], [149.087524, -35.636656], [149.086569, -35.635838], [149.088591, -35.634094], [149.08815, -35.633548], [149.087318, -35.630392], [149.087817, -35.629175], [149.087827, -35.628058], [149.087607, -35.627558], [149.085926, -35.625371], [149.085129, -35.622884], [149.08419, -35.621677], [149.085208, -35.619576], [149.084901, -35.618524], [149.084757, -35.617654], [149.084948, -35.616768], [149.084525, -35.614644], [149.082571, -35.613639], [149.081931, -35.611788], [149.081248, -35.611255], [149.081217, -35.610486], [149.080424, -35.608997], [149.079234, -35.607749], [149.079498, -35.606641], [149.079517, -35.605151], [149.080057, -35.604985], [149.07952, -35.602471], [149.07818, -35.598819], [149.078873, -35.598582], [149.079366, -35.597443], [149.078589, -35.596725], [149.078233, -35.59534], [149.079121, -35.593534], [149.079121, -35.593044], [149.078726, -35.592556], [149.078247, -35.588693], [149.077956, -35.587703], [149.078148, -35.586417], [149.082923, -35.584593], [149.084614, -35.580814], [149.090598, -35.581619], [149.108345, -35.58398], [149.107942, -35.585747], [149.10802, -35.586268], [149.108511, -35.587035], [149.109228, -35.587619], [149.109922, -35.58783], [149.1107, -35.587886], [149.111766, -35.587559], [149.112592, -35.58663], [149.112843, -35.585999], [149.113145, -35.585804], [149.114351, -35.586055], [149.114975, -35.586279], [149.115035, -35.585973], [149.123406, -35.58707], [149.123418, -35.586914], [149.12552, -35.587203], [149.125101, -35.589303], [149.126396, -35.58949], [149.126, -35.591626], [149.129998, -35.592151], [149.130268, -35.590785], [149.135194, -35.591465], [149.135181, -35.591591], [149.14251, -35.59257], [149.141344, -35.590671], [149.140486, -35.588292], [149.138021, -35.57942], [149.136354, -35.573312], [149.135509, -35.570307], [149.135177, -35.570353], [149.134938, -35.569499], [149.135297, -35.569549], [149.13443, -35.566466], [149.131546, -35.556102], [149.131376, -35.554173], [149.131532, -35.552505], [149.131775, -35.551409], [149.132384, -35.549458], [149.133059, -35.548017], [149.137843, -35.537323], [149.137709, -35.537124], [149.138079, -35.536315], [149.138442, -35.535968], [149.144909, -35.522012], [149.150195, -35.510604], [149.150985, -35.508179], [149.151279, -35.506926], [149.151545, -35.492842], [149.151507, -35.491931], [149.151174, -35.490439], [149.150948, -35.48986], [149.144637, -35.475775], [149.144092, -35.474726], [149.143654, -35.474056], [149.142607, -35.472801], [149.141075, -35.471335], [149.139986, -35.470084], [149.139116, -35.468723], [149.138768, -35.468009], [149.138255, -35.466532], [149.138186, -35.464829], [149.138193, -35.463403], [149.137979, -35.462856], [149.137341, -35.462069], [149.136795, -35.461201], [149.136495, -35.46046], [149.1363, -35.459497], [149.136282, -35.458911], [149.136474, -35.456997], [149.135701, -35.4553], [149.13555, -35.454422], [149.135821, -35.453436], [149.136298, -35.4527], [149.136994, -35.452091], [149.13785, -35.451721], [149.13894, -35.451481], [149.141253, -35.451511], [149.142171, -35.451395], [149.143053, -35.450641], [149.143347, -35.450218], [149.143261, -35.449671], [149.14339, -35.449356], [149.14318, -35.448545], [149.143348, -35.447823], [149.143794, -35.447029], [149.14503, -35.446125], [149.148082, -35.444266], [149.149114, -35.444036], [149.151478, -35.443994], [149.151941, -35.443886], [149.152677, -35.443494], [149.153145, -35.442964], [149.153366, -35.442006], [149.153107, -35.440946], [149.153088, -35.440325], [149.153381, -35.439234], [149.153972, -35.438367], [149.154867, -35.437382], [149.155134, -35.436628], [149.155123, -35.435781], [149.154791, -35.434888], [149.154189, -35.434207], [149.153462, -35.433755], [149.152273, -35.433434], [149.149767, -35.433678], [149.148418, -35.433596], [149.145341, -35.433233], [149.144822, -35.433338], [149.144369, -35.433663], [149.143459, -35.434095], [149.141998, -35.43437], [149.141346, -35.434303], [149.140435, -35.433999], [149.139833, -35.433612], [149.139362, -35.433117], [149.139052, -35.432543], [149.138163, -35.429401], [149.138667, -35.428319], [149.139741, -35.427599], [149.141788, -35.426495], [149.142996, -35.425615], [149.143088, -35.425133], [149.143793, -35.424771], [149.144486, -35.423693], [149.14565, -35.416777], [149.145926, -35.41597], [149.146334, -35.415201], [149.147175, -35.414151], [149.147875, -35.413539], [149.14867, -35.413011], [149.152449, -35.410732], [149.155381, -35.408969], [149.156562, -35.408065], [149.166234, -35.39787], [149.169739, -35.394026], [149.176217, -35.387167], [149.176361, -35.386607], [149.177794, -35.385092], [149.178637, -35.384615], [149.182191, -35.380848], [149.18379, -35.379055], [149.184858, -35.377754], [149.18591, -35.376368], [149.187118, -35.374614], [149.190824, -35.368854], [149.193477, -35.364751], [149.199339, -35.355594], [149.201631, -35.35206], [149.204521, -35.34761], [149.205222, -35.346782], [149.206345, -35.345905], [149.206445, -35.345845], [149.207761, -35.345225], [149.213248, -35.343248], [149.216186, -35.342191], [149.217912, -35.341563], [149.218756, -35.341342], [149.219651, -35.341255], [149.220802, -35.341356], [149.221571, -35.341242], [149.224367, -35.341774], [149.224851, -35.341686], [149.225693, -35.341844], [149.226546, -35.342191], [149.228822, -35.342616], [149.229516, -35.34295], [149.230478, -35.342768], [149.231257, -35.342381], [149.231586, -35.342204], [149.230882, -35.340042], [149.23022, -35.339034], [149.228463, -35.335794], [149.227511, -35.334424], [149.227033, -35.333917], [149.226213, -35.333266], [149.225291, -35.332776], [149.224465, -35.332506], [149.222199, -35.332245], [149.22052, -35.332242], [149.217767, -35.33264], [149.215548, -35.333198], [149.213795, -35.333886], [149.21038, -35.335884], [149.206375, -35.337808], [149.204014, -35.338743], [149.202361, -35.339242], [149.200866, -35.339456], [149.198568, -35.339518], [149.197638, -35.339363], [149.196646, -35.338956], [149.196053, -35.338482], [149.194845, -35.336973], [149.193468, -35.335567], [149.192346, -35.33399], [149.189068, -35.326492], [149.188086, -35.324482], [149.187271, -35.322381], [149.186324, -35.320705], [149.185313, -35.319664], [149.184509, -35.319183], [149.183748, -35.318983], [149.18155, -35.318637], [149.18039, -35.318337], [149.179228, -35.31779], [149.178506, -35.317181], [149.17772, -35.316143], [149.176904, -35.314601], [149.176221, -35.312505], [149.175475, -35.309612], [149.174891, -35.308238], [149.174392, -35.307516], [149.173886, -35.307059], [149.173209, -35.306693], [149.17245, -35.306494], [149.169345, -35.306423], [149.163594, -35.306045], [149.162641, -35.305888], [149.160209, -35.305161], [149.1587, -35.305063], [149.158034, -35.305207], [149.157306, -35.305544], [149.155628, -35.306769], [149.153803, -35.307918], [149.152517, -35.308942], [149.150649, -35.310682], [149.150076, -35.31149], [149.149639, -35.312774], [149.149529, -35.31482], [149.149922, -35.316843], [149.150515, -35.318732], [149.151896, -35.321741], [149.152329, -35.323378], [149.152285, -35.324273], [149.152054, -35.325052], [149.151504, -35.326211], [149.150708, -35.327397], [149.149352, -35.328844], [149.14777, -35.330069], [149.144137, -35.332109], [149.142166, -35.333019], [149.140911, -35.333494], [149.139626, -35.33371], [149.138311, -35.333576], [149.137022, -35.333113], [149.13534, -35.332257], [149.133833, -35.331236], [149.132441, -35.329718], [149.131896, -35.328924], [149.131632, -35.32836], [149.131362, -35.327123], [149.131419, -35.325568], [149.131812, -35.324083], [149.133025, -35.321498], [149.135152, -35.317881], [149.135481, -35.31702], [149.135628, -35.316014], [149.135559, -35.314283], [149.135263, -35.31284], [149.134427, -35.31099], [149.133407, -35.30952], [149.132991, -35.308773], [149.132701, -35.307624], [149.132761, -35.30665], [149.133037, -35.305507], [149.133439, -35.304486], [149.133921, -35.303597], [149.134678, -35.302497], [149.136251, -35.300551], [149.141026, -35.295826], [149.141679, -35.294925], [149.141887, -35.294288], [149.141854, -35.29377], [149.141598, -35.29317], [149.141202, -35.292657], [149.140651, -35.292145], [149.139033, -35.291188], [149.137542, -35.29071], [149.136448, -35.290573], [149.135197, -35.290696], [149.1338, -35.291244], [149.131242, -35.291996], [149.130718, -35.292246], [149.130078, -35.292741], [149.129726, -35.293186], [149.129369, -35.293912], [149.12789, -35.298329], [149.127209, -35.300688], [149.126728, -35.301405], [149.125316, -35.302539], [149.124604, -35.3029], [149.121735, -35.303722], [149.119613, -35.304571], [149.118774, -35.305128], [149.117342, -35.306428], [149.116345, -35.307191], [149.1148, -35.308221], [149.113381, -35.308937], [149.10625, -35.311187], [149.102299, -35.312323], [149.098442, -35.313141], [149.095389, -35.313496], [149.092767, -35.31369], [149.090376, -35.313657], [149.088943, -35.31353], [149.08786, -35.313257], [149.08665, -35.312809], [149.085293, -35.312205], [149.083859, -35.311348], [149.082435, -35.310291], [149.08049, -35.308667], [149.079577, -35.307637], [149.078376, -35.305905], [149.077665, -35.30469], [149.076469, -35.302307], [149.075945, -35.301807], [149.075417, -35.301595], [149.075083, -35.30156], [149.074226, -35.301795], [149.073642, -35.302314], [149.07196, -35.305475], [149.0706, -35.30713], [149.069331, -35.308167], [149.068036, -35.308896], [149.066832, -35.309242], [149.064016, -35.30945], [149.062973, -35.309758], [149.062208, -35.310238], [149.060318, -35.312043], [149.059524, -35.312505], [149.058755, -35.312795], [149.057658, -35.312901], [149.055277, -35.312673], [149.054122, -35.312674], [149.053179, -35.312827], [149.051296, -35.31334], [149.049968, -35.313535], [149.048974, -35.313508], [149.04807, -35.31324], [149.047342, -35.312665], [149.046801, -35.311796], [149.045623, -35.308151], [149.045039, -35.306934], [149.043939, -35.305633], [149.041974, -35.303974], [149.041542, -35.303313], [149.041266, -35.302476], [149.041218, -35.30185], [149.041355, -35.301013], [149.041612, -35.300398], [149.042043, -35.299764], [149.042464, -35.299349], [149.042996, -35.298994], [149.045447, -35.297927], [149.046708, -35.297139], [149.04768, -35.296078], [149.047943, -35.29548], [149.048018, -35.29495], [149.0479, -35.294134], [149.047359, -35.292886], [149.044424, -35.287957], [149.041793, -35.282279], [149.041366, -35.281558], [149.040858, -35.28099], [149.040359, -35.280673], [149.039648, -35.280421], [149.037883, -35.280181], [149.036282, -35.280299], [149.032471, -35.281025], [149.031681, -35.280992], [149.030883, -35.280726], [149.030345, -35.280311], [149.029859, -35.279531], [149.028621, -35.27567], [149.028053, -35.274373], [149.027409, -35.273451], [149.026707, -35.272827], [149.026171, -35.272541], [149.025358, -35.272288], [149.022735, -35.272211], [149.021617, -35.271924], [149.02062, -35.271278], [149.018929, -35.269423], [149.018002, -35.268602], [149.016971, -35.267936], [149.015771, -35.26742], [149.01477, -35.267148], [149.013753, -35.267012], [149.009727, -35.266944], [149.008915, -35.266764], [149.008279, -35.266513], [149.004114, -35.263982], [149.000892, -35.261833], [148.998709, -35.260603], [148.997957, -35.260042], [148.996175, -35.258428], [148.995524, -35.258039], [148.994783, -35.257811], [148.994154, -35.25773], [148.992396, -35.257741], [148.990589, -35.258202], [148.987473, -35.259401], [148.986375, -35.259599], [148.985807, -35.259464], [148.984812, -35.258709], [148.981237, -35.254911], [148.97793, -35.251771], [148.976133, -35.249945], [148.973607, -35.247861], [148.972373, -35.246499], [148.971343, -35.245168], [148.970902, -35.24435], [148.970589, -35.243087], [148.970689, -35.241924], [148.971029, -35.241], [148.971748, -35.239969], [148.972525, -35.239196], [148.973992, -35.238017], [148.974509, -35.237425], [148.974933, -35.236758], [148.975292, -35.235895], [148.975556, -35.234858], [148.975624, -35.234198], [148.975544, -35.233376], [148.975142, -35.232278], [148.972412, -35.226815], [148.970788, -35.223073], [148.969824, -35.220546], [148.969055, -35.218895], [148.968243, -35.217529], [148.966838, -35.215462]]]}}, {"type": "Feature", "properties": {"index": "FRAS", "division": "Fraser", "state": "Australian Capital Territory", "year": "1984", "proclaimed": "19840823", "quota": "72890", "electors": "70456", "deviation": "-3.33%"}, "geometry": {"type": "MultiPolygon", "coordinates": [[[[149.127163, -35.12572], [149.126449, -35.125322], [149.125653, -35.125221], [149.12317, -35.125043], [149.120902, -35.124517], [149.118076, -35.126527], [149.116909, -35.126111], [149.116242, -35.126478], [149.115503, -35.126247], [149.113387, -35.127539], [149.112652, -35.127711], [149.111149, -35.130001], [149.11108, -35.130288], [149.109918, -35.130709], [149.109725, -35.131145], [149.106853, -35.131181], [149.104328, -35.132328], [149.103364, -35.133327], [149.102863, -35.135229], [149.098046, -35.136742], [149.096553, -35.137966], [149.093322, -35.138657], [149.092272, -35.140744], [149.09201, -35.14142], [149.091017, -35.142339], [149.081158, -35.148093], [149.065822, -35.157144], [149.062456, -35.159223], [149.061705, -35.159669], [149.029652, -35.178612], [149.025216, -35.181224], [149.017893, -35.185403], [149.01219, -35.188922], [149.00714, -35.191904], [149.00082, -35.195652], [148.991604, -35.200887], [148.966838, -35.215462], [148.968243, -35.217529], [148.969055, -35.218895], [148.969824, -35.220546], [148.970788, -35.223073], [148.972412, -35.226815], [148.975142, -35.232278], [148.975544, -35.233376], [148.975624, -35.234198], [148.975556, -35.234858], [148.975292, -35.235895], [148.974933, -35.236758], [148.974509, -35.237425], [148.973992, -35.238017], [148.972525, -35.239196], [148.971748, -35.239969], [148.971029, -35.241], [148.970689, -35.241924], [148.970589, -35.243087], [148.970902, -35.24435], [148.971343, -35.245168], [148.972373, -35.246499], [148.973607, -35.247861], [148.976133, -35.249945], [148.97793, -35.251771], [148.981237, -35.254911], [148.984812, -35.258709], [148.985807, -35.259464], [148.986375, -35.259599], [148.987473, -35.259401], [148.990589, -35.258202], [148.992396, -35.257741], [148.994154, -35.25773], [148.994783, -35.257811], [148.995524, -35.258039], [148.996175, -35.258428], [148.997957, -35.260042], [148.998709, -35.260603], [149.000892, -35.261833], [149.004114, -35.263982], [149.008279, -35.266513], [149.008915, -35.266764], [149.009727, -35.266944], [149.013753, -35.267012], [149.01477, -35.267148], [149.015771, -35.26742], [149.016971, -35.267936], [149.018002, -35.268602], [149.018929, -35.269423], [149.02062, -35.271278], [149.021617, -35.271924], [149.022735, -35.272211], [149.025358, -35.272288], [149.026171, -35.272541], [149.026707, -35.272827], [149.027409, -35.273451], [149.028053, -35.274373], [149.028621, -35.27567], [149.029859, -35.279531], [149.030345, -35.280311], [149.030883, -35.280726], [149.031681, -35.280992], [149.032471, -35.281025], [149.036282, -35.280299], [149.037883, -35.280181], [149.039648, -35.280421], [149.040359, -35.280673], [149.040858, -35.28099], [149.041366, -35.281558], [149.041793, -35.282279], [149.044424, -35.287957], [149.047359, -35.292886], [149.0479, -35.294134], [149.048018, -35.29495], [149.047943, -35.29548], [149.04768, -35.296078], [149.046708, -35.297139], [149.045447, -35.297927], [149.042996, -35.298994], [149.042464, -35.299349], [149.042043, -35.299764], [149.041612, -35.300398], [149.041355, -35.301013], [149.041218, -35.30185], [149.041266, -35.302476], [149.041542, -35.303313], [149.041974, -35.303974], [149.043939, -35.305633], [149.045039, -35.306934], [149.045623, -35.308151], [149.046801, -35.311796], [149.047342, -35.312665], [149.04807, -35.31324], [149.048974, -35.313508], [149.049968, -35.313535], [149.051296, -35.31334], [149.053179, -35.312827], [149.054122, -35.312674], [149.055277, -35.312673], [149.057658, -35.312901], [149.058755, -35.312795], [149.059524, -35.312505], [149.060318, -35.312043], [149.062208, -35.310238], [149.062973, -35.309758], [149.064016, -35.30945], [149.066832, -35.309242], [149.068036, -35.308896], [149.069331, -35.308167], [149.0706, -35.30713], [149.07196, -35.305475], [149.073642, -35.302314], [149.074226, -35.301795], [149.075083, -35.30156], [149.075417, -35.301595], [149.075945, -35.301807], [149.076469, -35.302307], [149.077665, -35.30469], [149.078376, -35.305905], [149.079577, -35.307637], [149.08049, -35.308667], [149.082435, -35.310291], [149.083859, -35.311348], [149.085293, -35.312205], [149.08665, -35.312809], [149.08786, -35.313257], [149.088943, -35.31353], [149.090376, -35.313657], [149.092767, -35.31369], [149.095389, -35.313496], [149.098442, -35.313141], [149.102299, -35.312323], [149.10625, -35.311187], [149.113381, -35.308937], [149.1148, -35.308221], [149.116345, -35.307191], [149.117342, -35.306428], [149.118774, -35.305128], [149.119613, -35.304571], [149.121735, -35.303722], [149.124604, -35.3029], [149.125316, -35.302539], [149.126728, -35.301405], [149.127209, -35.300688], [149.12789, -35.298329], [149.129369, -35.293912], [149.129726, -35.293186], [149.130078, -35.292741], [149.130718, -35.292246], [149.131242, -35.291996], [149.1338, -35.291244], [149.135197, -35.290696], [149.136448, -35.290573], [149.137542, -35.29071], [149.139033, -35.291188], [149.140651, -35.292145], [149.141202, -35.292657], [149.141598, -35.29317], [149.141854, -35.29377], [149.141887, -35.294288], [149.141679, -35.294925], [149.141026, -35.295826], [149.136251, -35.300551], [149.134678, -35.302497], [149.133921, -35.303597], [149.133439, -35.304486], [149.133037, -35.305507], [149.132761, -35.30665], [149.132701, -35.307624], [149.132991, -35.308773], [149.133407, -35.30952], [149.134427, -35.31099], [149.135263, -35.31284], [149.135559, -35.314283], [149.135628, -35.316014], [149.135481, -35.31702], [149.135152, -35.317881], [149.133025, -35.321498], [149.131812, -35.324083], [149.131419, -35.325568], [149.131362, -35.327123], [149.131632, -35.32836], [149.131896, -35.328924], [149.132441, -35.329718], [149.133833, -35.331236], [149.13534, -35.332257], [149.137022, -35.333113], [149.138311, -35.333576], [149.139626, -35.33371], [149.140911, -35.333494], [149.142166, -35.333019], [149.144137, -35.332109], [149.14777, -35.330069], [149.149352, -35.328844], [149.150708, -35.327397], [149.151504, -35.326211], [149.152054, -35.325052], [149.152285, -35.324273], [149.152329, -35.323378], [149.151896, -35.321741], [149.150515, -35.318732], [149.149922, -35.316843], [149.149529, -35.31482], [149.149639, -35.312774], [149.150076, -35.31149], [149.150649, -35.310682], [149.152517, -35.308942], [149.153803, -35.307918], [149.155628, -35.306769], [149.157306, -35.305544], [149.158034, -35.305207], [149.1587, -35.305063], [149.160209, -35.305161], [149.162641, -35.305888], [149.163594, -35.306045], [149.169345, -35.306423], [149.17245, -35.306494], [149.173209, -35.306693], [149.173886, -35.307059], [149.174392, -35.307516], [149.174891, -35.308238], [149.175475, -35.309612], [149.176221, -35.312505], [149.176904, -35.314601], [149.17772, -35.316143], [149.178506, -35.317181], [149.179228, -35.31779], [149.18039, -35.318337], [149.18155, -35.318637], [149.183748, -35.318983], [149.184509, -35.319183], [149.185313, -35.319664], [149.186324, -35.320705], [149.187271, -35.322381], [149.188086, -35.324482], [149.189068, -35.326492], [149.192346, -35.33399], [149.193468, -35.335567], [149.194845, -35.336973], [149.196053, -35.338482], [149.196646, -35.338956], [149.197638, -35.339363], [149.198568, -35.339518], [149.200866, -35.339456], [149.202361, -35.339242], [149.204014, -35.338743], [149.206375, -35.337808], [149.21038, -35.335884], [149.213795, -35.333886], [149.215548, -35.333198], [149.217767, -35.33264], [149.22052, -35.332242], [149.222199, -35.332245], [149.224465, -35.332506], [149.225291, -35.332776], [149.226213, -35.333266], [149.227033, -35.333917], [149.227511, -35.334424], [149.228463, -35.335794], [149.23022, -35.339034], [149.230882, -35.340042], [149.231586, -35.342204], [149.241522, -35.336655], [149.243079, -35.335692], [149.243955, -35.334964], [149.244973, -35.333675], [149.246119, -35.331776], [149.247181, -35.330882], [149.248355, -35.330345], [149.249308, -35.330127], [149.251677, -35.330254], [149.253085, -35.330247], [149.253446, -35.330178], [149.255051, -35.330208], [149.256568, -35.331395], [149.258576, -35.331968], [149.259605, -35.33165], [149.260354, -35.331326], [149.261328, -35.331156], [149.262521, -35.331333], [149.263187, -35.331651], [149.264051, -35.332252], [149.264937, -35.332622], [149.266345, -35.333576], [149.267175, -35.334423], [149.268373, -35.335067], [149.269609, -35.335158], [149.271479, -35.335215], [149.272402, -35.335449], [149.27391, -35.335988], [149.274513, -35.335999], [149.276044, -35.335785], [149.278093, -35.336525], [149.27998, -35.337511], [149.281563, -35.338002], [149.282694, -35.338069], [149.283949, -35.3379], [149.28552, -35.33734], [149.286695, -35.33659], [149.288058, -35.335852], [149.288499, -35.335746], [149.291858, -35.333912], [149.292921, -35.333542], [149.294276, -35.333307], [149.29576, -35.333272], [149.299606, -35.333082], [149.300447, -35.333114], [149.302133, -35.333484], [149.303161, -35.334815], [149.303614, -35.335289], [149.304475, -35.335778], [149.30497, -35.335922], [149.308586, -35.336034], [149.311912, -35.33611], [149.311959, -35.335847], [149.31402, -35.33604], [149.316209, -35.336337], [149.318915, -35.336781], [149.31904, -35.337005], [149.326571, -35.338245], [149.326636, -35.338096], [149.327243, -35.338198], [149.327304, -35.338382], [149.336346, -35.339884], [149.337689, -35.340314], [149.338578, -35.340876], [149.339097, -35.341379], [149.340039, -35.342761], [149.34008, -35.343575], [149.340503, -35.344584], [149.341082, -35.345201], [149.347266, -35.350155], [149.348293, -35.350744], [149.349246, -35.351094], [149.350674, -35.351349], [149.352134, -35.351317], [149.356236, -35.350708], [149.357371, -35.350319], [149.358111, -35.349866], [149.359189, -35.34899], [149.359892, -35.348602], [149.360588, -35.348404], [149.361313, -35.348348], [149.362873, -35.348437], [149.363983, -35.348171], [149.364615, -35.347703], [149.365039, -35.346888], [149.364946, -35.342929], [149.365056, -35.342202], [149.365567, -35.341154], [149.366601, -35.340174], [149.367987, -35.339552], [149.373322, -35.338264], [149.374828, -35.337802], [149.37672, -35.336978], [149.385354, -35.332516], [149.386426, -35.332062], [149.38875, -35.331558], [149.39018, -35.331056], [149.390982, -35.330582], [149.391865, -35.329827], [149.393374, -35.328124], [149.393997, -35.327599], [149.395144, -35.326851], [149.396546, -35.326116], [149.398036, -35.325252], [149.39718, -35.324254], [149.397422, -35.323356], [149.398129, -35.321948], [149.398155, -35.320949], [149.398163, -35.320615], [149.399287, -35.31909], [149.398005, -35.318585], [149.397201, -35.317313], [149.397169, -35.316657], [149.397316, -35.315895], [149.396688, -35.314182], [149.397136, -35.313539], [149.397281, -35.311003], [149.396428, -35.30968], [149.394497, -35.309191], [149.395342, -35.307312], [149.394685, -35.306559], [149.39497, -35.30569], [149.39511, -35.304413], [149.39479, -35.303157], [149.394619, -35.303156], [149.393416, -35.302924], [149.391606, -35.303456], [149.389676, -35.302698], [149.388265, -35.303609], [149.386579, -35.303418], [149.384175, -35.304349], [149.383697, -35.306471], [149.381897, -35.306266], [149.381623, -35.305692], [149.379861, -35.305716], [149.377796, -35.305126], [149.376052, -35.304886], [149.376041, -35.30494], [149.374174, -35.304695], [149.372244, -35.306739], [149.370172, -35.30824], [149.366807, -35.308022], [149.36584, -35.308526], [149.363797, -35.308643], [149.361666, -35.309025], [149.359659, -35.307538], [149.361062, -35.305955], [149.361926, -35.304294], [149.361991, -35.303089], [149.360954, -35.301605], [149.359507, -35.301587], [149.357616, -35.300814], [149.356615, -35.300596], [149.355025, -35.299653], [149.352018, -35.299874], [149.350553, -35.299358], [149.350342, -35.298763], [149.350421, -35.298166], [149.350167, -35.297263], [149.350568, -35.296708], [149.350505, -35.295952], [149.349701, -35.294404], [149.348944, -35.294436], [149.34808, -35.293479], [149.348761, -35.292862], [149.34887, -35.292069], [149.347872, -35.291587], [149.345768, -35.291871], [149.345034, -35.292206], [149.343211, -35.292048], [149.342838, -35.290187], [149.341439, -35.288961], [149.341498, -35.286703], [149.339709, -35.2863], [149.337698, -35.286971], [149.337618, -35.287873], [149.336325, -35.288737], [149.335805, -35.288414], [149.335757, -35.287382], [149.334853, -35.286976], [149.334765, -35.286293], [149.332868, -35.285361], [149.331692, -35.285202], [149.331146, -35.284546], [149.329837, -35.284388], [149.328881, -35.28331], [149.327533, -35.282478], [149.326499, -35.282426], [149.325415, -35.283473], [149.324993, -35.284394], [149.324581, -35.286388], [149.323516, -35.286414], [149.322477, -35.28674], [149.322035, -35.285787], [149.32127, -35.28522], [149.321069, -35.284604], [149.320388, -35.283993], [149.31919, -35.28384], [149.318178, -35.282854], [149.316922, -35.281931], [149.316202, -35.281775], [149.31626, -35.280394], [149.316575, -35.279535], [149.316044, -35.278876], [149.315286, -35.276286], [149.314182, -35.276004], [149.312139, -35.276587], [149.311697, -35.277525], [149.309768, -35.278268], [149.309061, -35.276206], [149.306645, -35.276544], [149.305417, -35.275532], [149.306229, -35.274501], [149.305766, -35.273993], [149.303846, -35.273377], [149.302711, -35.274109], [149.302229, -35.273905], [149.302099, -35.27323], [149.301643, -35.272894], [149.300665, -35.272845], [149.298785, -35.272172], [149.298462, -35.272156], [149.297309, -35.272774], [149.296667, -35.272435], [149.294296, -35.273559], [149.293636, -35.274201], [149.291434, -35.274248], [149.289293, -35.275699], [149.288364, -35.275247], [149.28752, -35.274128], [149.287323, -35.272963], [149.285433, -35.271631], [149.282976, -35.272059], [149.281524, -35.270994], [149.280126, -35.271061], [149.279627, -35.270652], [149.278449, -35.270752], [149.277021, -35.271338], [149.276381, -35.273082], [149.275751, -35.273802], [149.275378, -35.275052], [149.274376, -35.274918], [149.272439, -35.273394], [149.271808, -35.273485], [149.272249, -35.271917], [149.271628, -35.270805], [149.271713, -35.270138], [149.27236, -35.269429], [149.272477, -35.26729], [149.272076, -35.266965], [149.273461, -35.266102], [149.27351, -35.264299], [149.273792, -35.263214], [149.272778, -35.262649], [149.272554, -35.26183], [149.273018, -35.261238], [149.272819, -35.260489], [149.273316, -35.259937], [149.273179, -35.259179], [149.271749, -35.259026], [149.270546, -35.259155], [149.269571, -35.258922], [149.267593, -35.259578], [149.26716, -35.25952], [149.262825, -35.25867], [149.262566, -35.257962], [149.262261, -35.257395], [149.261291, -35.25692], [149.260006, -35.257348], [149.257329, -35.257203], [149.255379, -35.256345], [149.255342, -35.255379], [149.2539, -35.25364], [149.253011, -35.252231], [149.250653, -35.25224], [149.249992, -35.250733], [149.249651, -35.249354], [149.250324, -35.247987], [149.249429, -35.247183], [149.247233, -35.246527], [149.245803, -35.247379], [149.244266, -35.246411], [149.242737, -35.246121], [149.241867, -35.24636], [149.240608, -35.245811], [149.237943, -35.243572], [149.237298, -35.243295], [149.23489, -35.243419], [149.234374, -35.242792], [149.23455, -35.24047], [149.236186, -35.239741], [149.237043, -35.23891], [149.238483, -35.238348], [149.238425, -35.23791], [149.241242, -35.236755], [149.241518, -35.235032], [149.242764, -35.233636], [149.24297, -35.232867], [149.24294, -35.232161], [149.242741, -35.231667], [149.242934, -35.23133], [149.244808, -35.231371], [149.245953, -35.230715], [149.246317, -35.229869], [149.246794, -35.22915], [149.246125, -35.227979], [149.246009, -35.227265], [149.245531, -35.226723], [149.243261, -35.225466], [149.241288, -35.225344], [149.240728, -35.225046], [149.2399, -35.223138], [149.238697, -35.222227], [149.237105, -35.222363], [149.23651, -35.221561], [149.234392, -35.221003], [149.231797, -35.221972], [149.231715, -35.222002], [149.228775, -35.221687], [149.227037, -35.219844], [149.225799, -35.219312], [149.224309, -35.219181], [149.223762, -35.219016], [149.219988, -35.220706], [149.215996, -35.219749], [149.213785, -35.219605], [149.213064, -35.220272], [149.212052, -35.222698], [149.211505, -35.22463], [149.210454, -35.22634], [149.204883, -35.229549], [149.204986, -35.2291], [149.204279, -35.226689], [149.203279, -35.226149], [149.202456, -35.224625], [149.205028, -35.219863], [149.205613, -35.217445], [149.206099, -35.216268], [149.207555, -35.216047], [149.208189, -35.214457], [149.208778, -35.212828], [149.208568, -35.211501], [149.207193, -35.211851], [149.205895, -35.211567], [149.204226, -35.208952], [149.200672, -35.206357], [149.200699, -35.205565], [149.200701, -35.205411], [149.200716, -35.204954], [149.198518, -35.202903], [149.197769, -35.202537], [149.196336, -35.202364], [149.19239, -35.202536], [149.189542, -35.203324], [149.190221, -35.20074], [149.19019, -35.200127], [149.191497, -35.198504], [149.191329, -35.197081], [149.190287, -35.194353], [149.190696, -35.194046], [149.192203, -35.193637], [149.196388, -35.190942], [149.196375, -35.188447], [149.196901, -35.187416], [149.196824, -35.186152], [149.197037, -35.185499], [149.195365, -35.184583], [149.194346, -35.183132], [149.192781, -35.181443], [149.19282, -35.180893], [149.192166, -35.179854], [149.191465, -35.179295], [149.187791, -35.178186], [149.185822, -35.177832], [149.184172, -35.176733], [149.183629, -35.175618], [149.184858, -35.17365], [149.184911, -35.173031], [149.187779, -35.169529], [149.189097, -35.165677], [149.185495, -35.161201], [149.183737, -35.161052], [149.182917, -35.160093], [149.17941, -35.158805], [149.177613, -35.15931], [149.176381, -35.158283], [149.174229, -35.158474], [149.173357, -35.159845], [149.172947, -35.158759], [149.171901, -35.158642], [149.171213, -35.159051], [149.170868, -35.15979], [149.16979, -35.160326], [149.167696, -35.159881], [149.167702, -35.158341], [149.16689, -35.157662], [149.165414, -35.156877], [149.164688, -35.155293], [149.164134, -35.154688], [149.162773, -35.154332], [149.162554, -35.153783], [149.163255, -35.153077], [149.163374, -35.151889], [149.163393, -35.151582], [149.164679, -35.15085], [149.165066, -35.150099], [149.164206, -35.149552], [149.164431, -35.14875], [149.163195, -35.146968], [149.163379, -35.146005], [149.163995, -35.145356], [149.164422, -35.144107], [149.164879, -35.143727], [149.164312, -35.142046], [149.16335, -35.141986], [149.161934, -35.141762], [149.161016, -35.142074], [149.159195, -35.141708], [149.158187, -35.14226], [149.157571, -35.143104], [149.157444, -35.144129], [149.155787, -35.144627], [149.154721, -35.144613], [149.153929, -35.143952], [149.152668, -35.143973], [149.152037, -35.14461], [149.150699, -35.144695], [149.150061, -35.14547], [149.148862, -35.145399], [149.148435, -35.145103], [149.147731, -35.145145], [149.146775, -35.144856], [149.146513, -35.144055], [149.147379, -35.142999], [149.149298, -35.14206], [149.149767, -35.139522], [149.149637, -35.138669], [149.148265, -35.137385], [149.14747, -35.137348], [149.145875, -35.13615], [149.146004, -35.135446], [149.144961, -35.134596], [149.143162, -35.135987], [149.141335, -35.135827], [149.140501, -35.136293], [149.139793, -35.135413], [149.1386, -35.135257], [149.138679, -35.13288], [149.139966, -35.130832], [149.138642, -35.129451], [149.138819, -35.128466], [149.136822, -35.127813], [149.131698, -35.12906], [149.129566, -35.127669], [149.128759, -35.128021], [149.128083, -35.126591], [149.126856, -35.126389], [149.127163, -35.12572]]], [[[150.681824, -35.120649], [150.673991, -35.119582], [150.664396, -35.11828], [150.661053, -35.117824], [150.66164, -35.119226], [150.661554, -35.120299], [150.661172, -35.121917], [150.660871, -35.12282], [150.660839, -35.123593], [150.66032, -35.125394], [150.659758, -35.126035], [150.658583, -35.127173], [150.658178, -35.127758], [150.657594, -35.129], [150.657174, -35.12937], [150.65609, -35.12998], [150.653957, -35.131056], [150.653208, -35.131253], [150.651688, -35.131917], [150.650672, -35.132842], [150.64888, -35.134779], [150.648022, -35.135518], [150.647739, -35.136018], [150.647523, -35.136904], [150.646577, -35.137771], [150.645508, -35.138553], [150.644408, -35.139033], [150.643638, -35.139545], [150.643215, -35.140172], [150.64277, -35.141372], [150.642136, -35.142213], [150.641172, -35.143109], [150.640278, -35.14382], [150.639785, -35.144562], [150.638627, -35.145701], [150.637259, -35.146881], [150.635158, -35.148357], [150.633428, -35.14925], [150.632469, -35.149473], [150.631389, -35.149453], [150.629941, -35.149802], [150.627903, -35.149976], [150.626861, -35.149785], [150.624758, -35.149286], [150.623613, -35.148893], [150.621969, -35.147853], [150.62126, -35.147176], [150.619377, -35.145633], [150.618026, -35.144782], [150.617352, -35.144147], [150.615761, -35.143036], [150.615275, -35.14279], [150.615169, -35.142976], [150.615722, -35.14348], [150.616133, -35.144284], [150.616649, -35.145017], [150.617658, -35.145037], [150.618144, -35.145283], [150.619579, -35.146365], [150.620097, -35.146898], [150.620944, -35.147489], [150.62122, -35.147863], [150.620521, -35.148131], [150.618123, -35.147631], [150.617393, -35.147626], [150.616012, -35.148348], [150.615435, -35.14856], [150.614531, -35.148426], [150.614309, -35.147909], [150.614945, -35.146853], [150.614904, -35.145622], [150.615567, -35.145368], [150.615292, -35.144966], [150.614802, -35.145149], [150.614308, -35.145933], [150.614263, -35.147106], [150.613862, -35.147333], [150.612331, -35.147196], [150.611189, -35.146374], [150.610139, -35.14515], [150.609257, -35.144444], [150.608337, -35.144037], [150.607504, -35.143847], [150.606702, -35.144056], [150.605105, -35.14545], [150.604144, -35.145988], [150.603463, -35.146213], [150.602853, -35.146252], [150.601932, -35.146075], [150.600557, -35.146096], [150.599545, -35.146376], [150.598397, -35.146241], [150.596799, -35.145859], [150.59602, -35.145439], [150.595416, -35.14482], [150.594969, -35.144173], [150.594292, -35.143926], [150.592868, -35.143937], [150.59343, -35.146914], [150.594565, -35.148684], [150.595383, -35.151], [150.596246, -35.15218], [150.598381, -35.152543], [150.600607, -35.152997], [150.602606, -35.153179], [150.604378, -35.154313], [150.605105, -35.156175], [150.604696, -35.1579], [150.603106, -35.160215], [150.601834, -35.162621], [150.601016, -35.164528], [150.600744, -35.165708], [150.601016, -35.166888], [150.601425, -35.167706], [150.601698, -35.168886], [150.601334, -35.170066], [150.599154, -35.170611], [150.596837, -35.17043], [150.595156, -35.17052], [150.593157, -35.171021], [150.591749, -35.171882], [150.591249, -35.172472], [150.591104, -35.173199], [150.590986, -35.173785], [150.591489, -35.17668], [150.59159, -35.178818], [150.592497, -35.181612], [150.592698, -35.182921], [150.592472, -35.183651], [150.592547, -35.184281], [150.593971, -35.185018], [150.594724, -35.183836], [150.595756, -35.183312], [150.596549, -35.182186], [150.598081, -35.180249], [150.598608, -35.17978], [150.601028, -35.177862], [150.602392, -35.177082], [150.603688, -35.176246], [150.605717, -35.175241], [150.6068, -35.174804], [150.608899, -35.173671], [150.609738, -35.173376], [150.610718, -35.172809], [150.612674, -35.172061], [150.614105, -35.171712], [150.617737, -35.170502], [150.618454, -35.170177], [150.620532, -35.169402], [150.62191, -35.169109], [150.623202, -35.168744], [150.625154, -35.168426], [150.627178, -35.167923], [150.631453, -35.166788], [150.632623, -35.166422], [150.635988, -35.16584], [150.640032, -35.16529], [150.641968, -35.164786], [150.644392, -35.164313], [150.645962, -35.163921], [150.647914, -35.163631], [150.650144, -35.163571], [150.651137, -35.16342], [150.654952, -35.163097], [150.656467, -35.16312], [150.658015, -35.1633], [150.660245, -35.163097], [150.661445, -35.163233], [150.662085, -35.163723], [150.662409, -35.164555], [150.662214, -35.164997], [150.662369, -35.165256], [150.662735, -35.165158], [150.663378, -35.165362], [150.664074, -35.165394], [150.665295, -35.165129], [150.665767, -35.164888], [150.665725, -35.164356], [150.666278, -35.164103], [150.667031, -35.163578], [150.667921, -35.163296], [150.668687, -35.163286], [150.670218, -35.163523], [150.672581, -35.164037], [150.675411, -35.165026], [150.675775, -35.165271], [150.676448, -35.166062], [150.676134, -35.16616], [150.6756, -35.165413], [150.674887, -35.165223], [150.674829, -35.166039], [150.675155, -35.166627], [150.675815, -35.166874], [150.677045, -35.167668], [150.678054, -35.167759], [150.678681, -35.167677], [150.681264, -35.166874], [150.681424, -35.166503], [150.681147, -35.16623], [150.68122, -35.165772], [150.681694, -35.165388], [150.682616, -35.165393], [150.684406, -35.165817], [150.6851, -35.166136], [150.685637, -35.16654], [150.685912, -35.167013], [150.686216, -35.168203], [150.685486, -35.168056], [150.684875, -35.168253], [150.684209, -35.168794], [150.682968, -35.169489], [150.681553, -35.170025], [150.681551, -35.170254], [150.682299, -35.170344], [150.68355, -35.170637], [150.684856, -35.17073], [150.685969, -35.17095], [150.686474, -35.17091], [150.687295, -35.170485], [150.687212, -35.170055], [150.688278, -35.169474], [150.68901, -35.169434], [150.689792, -35.169639], [150.690711, -35.170145], [150.691244, -35.170935], [150.691465, -35.171709], [150.691426, -35.172195], [150.690407, -35.17335], [150.689827, -35.174134], [150.689384, -35.175162], [150.688826, -35.175302], [150.688248, -35.175657], [150.688122, -35.176229], [150.688343, -35.176932], [150.689362, -35.177953], [150.690199, -35.177829], [150.690829, -35.177431], [150.690745, -35.177016], [150.691593, -35.176461], [150.691829, -35.176449], [150.69191, -35.177179], [150.691662, -35.177836], [150.691939, -35.178038], [150.693262, -35.178031], [150.693161, -35.177658], [150.693719, -35.177489], [150.694768, -35.176994], [150.695377, -35.176997], [150.695793, -35.177242], [150.695686, -35.177542], [150.695002, -35.178197], [150.694636, -35.178253], [150.694109, -35.178951], [150.693895, -35.17948], [150.693516, -35.181281], [150.694367, -35.181629], [150.694921, -35.182047], [150.695551, -35.18165], [150.696001, -35.181981], [150.695616, -35.182251], [150.695822, -35.182653], [150.696255, -35.182956], [150.695307, -35.183953], [150.695045, -35.184095], [150.695092, -35.184782], [150.695385, -35.185156], [150.69447, -35.186296], [150.694415, -35.186768], [150.69505, -35.187917], [150.695481, -35.188506], [150.695547, -35.189022], [150.695127, -35.189349], [150.69575, -35.189853], [150.695537, -35.190296], [150.694629, -35.190563], [150.694422, -35.190433], [150.693843, -35.191003], [150.69424, -35.191434], [150.693592, -35.191903], [150.693414, -35.192317], [150.692799, -35.193087], [150.691458, -35.193023], [150.691053, -35.193651], [150.69201, -35.193756], [150.691886, -35.19407], [150.69232, -35.194158], [150.692142, -35.194801], [150.692241, -35.195446], [150.691697, -35.19603], [150.691553, -35.196573], [150.691791, -35.197462], [150.692257, -35.197966], [150.692622, -35.198039], [150.69274, -35.198555], [150.693393, -35.199675], [150.694291, -35.200624], [150.69483, -35.200856], [150.696241, -35.200777], [150.697414, -35.200068], [150.698451, -35.198842], [150.698979, -35.198029], [150.699018, -35.1976], [150.699613, -35.197102], [150.700293, -35.197034], [150.70101, -35.196608], [150.701417, -35.19578], [150.702359, -35.19567], [150.702678, -35.19487], [150.702351, -35.194382], [150.70366, -35.193959], [150.704272, -35.193633], [150.704816, -35.193177], [150.705573, -35.19205], [150.706882, -35.191742], [150.707441, -35.191502], [150.707897, -35.191089], [150.707658, -35.190458], [150.708637, -35.18999], [150.708884, -35.189519], [150.709564, -35.189365], [150.710531, -35.188225], [150.710742, -35.187797], [150.710767, -35.186809], [150.710392, -35.185719], [150.710585, -35.185606], [150.711612, -35.185625], [150.712102, -35.185298], [150.712373, -35.183969], [150.712882, -35.183413], [150.713775, -35.182745], [150.715263, -35.181793], [150.716206, -35.181397], [150.717379, -35.180487], [150.717749, -35.179944], [150.718643, -35.179205], [150.72037, -35.178726], [150.721141, -35.178129], [150.721651, -35.17733], [150.72227, -35.176145], [150.723648, -35.175722], [150.724142, -35.17488], [150.723727, -35.174463], [150.724309, -35.173507], [150.724869, -35.172951], [150.725584, -35.172854], [150.72642, -35.172887], [150.728351, -35.173097], [150.728837, -35.173257], [150.729369, -35.174333], [150.730149, -35.174924], [150.731087, -35.1752], [150.730806, -35.175514], [150.730978, -35.175815], [150.731673, -35.175976], [150.731601, -35.176305], [150.731216, -35.176661], [150.730676, -35.17673], [150.730512, -35.177674], [150.730594, -35.178404], [150.730835, -35.178763], [150.733288, -35.179076], [150.733913, -35.179294], [150.734732, -35.179283], [150.735236, -35.179429], [150.73579, -35.179875], [150.736208, -35.179863], [150.737443, -35.180084], [150.738088, -35.18003], [150.738821, -35.179818], [150.73933, -35.179148], [150.739481, -35.177546], [150.740233, -35.177077], [150.741373, -35.175908], [150.741481, -35.175465], [150.74197, -35.17521], [150.744044, -35.174933], [150.744824, -35.175395], [150.745643, -35.175356], [150.746167, -35.175158], [150.746468, -35.174487], [150.746211, -35.173756], [150.746493, -35.173399], [150.747451, -35.173303], [150.748533, -35.172994], [150.749654, -35.172011], [150.749852, -35.171067], [150.750762, -35.170427], [150.751025, -35.170099], [150.751478, -35.170059], [150.752161, -35.169575], [150.752857, -35.169535], [150.753359, -35.169996], [150.753846, -35.170098], [150.753999, -35.170743], [150.7556, -35.170751], [150.756447, -35.169209], [150.756935, -35.169082], [150.757726, -35.167969], [150.757729, -35.167554], [150.757398, -35.167524], [150.756158, -35.168134], [150.75539, -35.168345], [150.75487, -35.16807], [150.754681, -35.167654], [150.755463, -35.167844], [150.756283, -35.167719], [150.757226, -35.167251], [150.757662, -35.16721], [150.758067, -35.166482], [150.758108, -35.165652], [150.758302, -35.165209], [150.758952, -35.16431], [150.759534, -35.163339], [150.760356, -35.162785], [150.760481, -35.16227], [150.760224, -35.161697], [150.760402, -35.161053], [150.760232, -35.160566], [150.760583, -35.160124], [150.760398, -35.159206], [150.759562, -35.159131], [150.758833, -35.158813], [150.758138, -35.158666], [150.757811, -35.158035], [150.758217, -35.157264], [150.758395, -35.156664], [150.758103, -35.156118], [150.758124, -35.155574], [150.758511, -35.155047], [150.758672, -35.154346], [150.759023, -35.153904], [150.759878, -35.153578], [150.761168, -35.153355], [150.761901, -35.153144], [150.7626, -35.152675], [150.762483, -35.151973], [150.762627, -35.151258], [150.762024, -35.150368], [150.761804, -35.149436], [150.761777, -35.148305], [150.762013, -35.146803], [150.762511, -35.145302], [150.76226, -35.143812], [150.762263, -35.143283], [150.763244, -35.142371], [150.763543, -35.141957], [150.7636, -35.141256], [150.763794, -35.140785], [150.764952, -35.139487], [150.764748, -35.138685], [150.764352, -35.138139], [150.764131, -35.137322], [150.764205, -35.136692], [150.764682, -35.135635], [150.76531, -35.135409], [150.765575, -35.134838], [150.765369, -35.134393], [150.76504, -35.134177], [150.764081, -35.134401], [150.763839, -35.134128], [150.763687, -35.133498], [150.763847, -35.132969], [150.764387, -35.132871], [150.76453, -35.132242], [150.764428, -35.131855], [150.764027, -35.131953], [150.763803, -35.13168], [150.763875, -35.131251], [150.764193, -35.130723], [150.765069, -35.129797], [150.765249, -35.128867], [150.76513, -35.128394], [150.765777, -35.127982], [150.765349, -35.127006], [150.76476, -35.126546], [150.764745, -35.126159], [150.764486, -35.125872], [150.765081, -35.125359], [150.765224, -35.124801], [150.764915, -35.124156], [150.764238, -35.123952], [150.763141, -35.12409], [150.762526, -35.124961], [150.760764, -35.125482], [150.760033, -35.125622], [150.758573, -35.125401], [150.757809, -35.125011], [150.756981, -35.124019], [150.756006, -35.124086], [150.75587, -35.123613], [150.755558, -35.123469], [150.754548, -35.123607], [150.753813, -35.124062], [150.753012, -35.124258], [150.752504, -35.124728], [150.751624, -35.126184], [150.751274, -35.126426], [150.750598, -35.128542], [150.749469, -35.130683], [150.748842, -35.130895], [150.747933, -35.131478], [150.748104, -35.131808], [150.747735, -35.132322], [150.747557, -35.132922], [150.747777, -35.133739], [150.74774, -35.134125], [150.746763, -35.134436], [150.746535, -35.134663], [150.745989, -35.135663], [150.7455, -35.13599], [150.744593, -35.136243], [150.742503, -35.136462], [150.742525, -35.135833], [150.742055, -35.135816], [150.741814, -35.135328], [150.740542, -35.135508], [150.740296, -35.135937], [150.73993, -35.136035], [150.739959, -35.136908], [150.73933, -35.137134], [150.738425, -35.137202], [150.736981, -35.137094], [150.735676, -35.137088], [150.734163, -35.136909], [150.73305, -35.136689], [150.730619, -35.135904], [150.730097, -35.135916], [150.730013, -35.135501], [150.729456, -35.135469], [150.729006, -35.135152], [150.728013, -35.135176], [150.7275, -35.134], [150.726833, -35.134698], [150.725715, -35.135322], [150.725485, -35.135635], [150.724877, -35.135633], [150.723152, -35.135939], [150.722318, -35.135835], [150.720618, -35.135097], [150.719352, -35.134418], [150.717464, -35.133163], [150.715257, -35.130897], [150.713284, -35.128511], [150.712096, -35.126744], [150.710734, -35.125133], [150.709924, -35.124099], [150.709457, -35.123134], [150.708465, -35.122304], [150.707838, -35.122231], [150.705961, -35.122621], [150.705249, -35.123036], [150.703649, -35.123309], [150.702293, -35.123195], [150.701604, -35.122862], [150.700489, -35.12304], [150.693173, -35.122096], [150.681824, -35.120649]]], [[[150.771867, -35.121625], [150.771815, -35.121439], [150.772302, -35.121009], [150.772616, -35.120165], [150.772738, -35.119335], [150.772669, -35.118648], [150.772826, -35.118347], [150.7726, -35.117446], [150.772757, -35.117331], [150.772479, -35.116916], [150.77248, -35.115542], [150.772028, -35.115313], [150.772081, -35.114955], [150.771838, -35.114726], [150.771386, -35.113696], [150.770951, -35.113681], [150.770621, -35.113452], [150.770708, -35.113166], [150.769196, -35.112435], [150.768396, -35.112321], [150.768031, -35.11285], [150.767544, -35.113294], [150.76796, -35.114024], [150.767091, -35.114267], [150.766847, -35.114553], [150.766996, -35.115214], [150.766151, -35.115426], [150.765698, -35.115912], [150.765663, -35.116599], [150.764984, -35.117143], [150.765002, -35.117372], [150.764497, -35.117486], [150.764322, -35.118373], [150.764356, -35.11969], [150.764634, -35.119948], [150.764599, -35.12052], [150.764877, -35.120792], [150.76505, -35.12135], [150.764684, -35.122009], [150.765362, -35.122581], [150.765031, -35.122968], [150.764849, -35.123697], [150.765684, -35.123744], [150.766231, -35.123226], [150.766179, -35.122968], [150.76578, -35.122839], [150.766302, -35.122439], [150.767884, -35.122597], [150.768475, -35.123055], [150.76917, -35.123098], [150.770527, -35.122998], [150.770684, -35.122769], [150.77138, -35.12244], [150.771258, -35.122197], [150.771867, -35.121625]]], [[[150.694308, -35.182416], [150.694131, -35.182845], [150.693657, -35.183343], [150.693549, -35.183758], [150.694083, -35.184562], [150.694762, -35.18468], [150.694836, -35.184037], [150.695136, -35.183552], [150.695555, -35.183382], [150.695663, -35.182967], [150.695127, -35.182406], [150.694308, -35.182416]]]]}}]}